<?xml version="1.0" encoding="UTF-8"?>
<gpx version="1.1" creator="Val di Fumo Trail Companion" xmlns="http://www.topografix.com/GPX/1/1">
<metadata>
<name>Andata diga Malga Bissina → Rifugio Val di Fumo</name>
<desc>Traccia DERIVATA da OpenStreetMap (ODbL), non rilevata sul campo ne' confrontata con la traccia ufficiale SAT. Quote da DEM (stime).</desc>
<copyright author="OpenStreetMap contributors"><year>2026</year><license>https://opendatacommons.org/licenses/odbl/1-0/</license></copyright>
<time>2026-10-08T12:23:55Z</time>
</metadata>
<wpt lat="46.052050" lon="10.513409">
<ele>1807</ele>
<name>Parcheggio diga Malga Bissina</name>
</wpt>
<wpt lat="46.070927" lon="10.540559">
<ele>1810</ele>
<name>Malga Breguzzo</name>
</wpt>
<wpt lat="46.071698" lon="10.541518">
<ele>1814</ele>
<name>Cascata sul Chiese (nodo OSM)</name>
</wpt>
<wpt lat="46.083538" lon="10.558438">
<ele>1884</ele>
<name>Malga Val di Fumo</name>
</wpt>
<wpt lat="46.084493" lon="10.562531">
<ele>1896</ele>
<name>Rifugio Val di Fumo</name>
</wpt>
<trk><name>Andata diga Malga Bissina → Rifugio Val di Fumo</name><desc>Traccia DERIVATA da OpenStreetMap (ODbL), non rilevata sul campo ne' confrontata con la traccia ufficiale SAT. Quote da DEM (stime).</desc><trkseg>
<trkpt lat="46.051978" lon="10.513741"><ele>1792</ele></trkpt>
<trkpt lat="46.052073" lon="10.513784"><ele>1791</ele></trkpt>
<trkpt lat="46.052123" lon="10.513801"><ele>1791</ele></trkpt>
<trkpt lat="46.052142" lon="10.513816"><ele>1791</ele></trkpt>
<trkpt lat="46.052192" lon="10.513881"><ele>1788</ele></trkpt>
<trkpt lat="46.052222" lon="10.513908"><ele>1788</ele></trkpt>
<trkpt lat="46.052239" lon="10.513900"><ele>1788</ele></trkpt>
<trkpt lat="46.052279" lon="10.513845"><ele>1791</ele></trkpt>
<trkpt lat="46.052362" lon="10.513820"><ele>1793</ele></trkpt>
<trkpt lat="46.052455" lon="10.513803"><ele>1794</ele></trkpt>
<trkpt lat="46.052514" lon="10.513768"><ele>1797</ele></trkpt>
<trkpt lat="46.052546" lon="10.513749"><ele>1798</ele></trkpt>
<trkpt lat="46.052546" lon="10.513727"><ele>1799</ele></trkpt>
<trkpt lat="46.052480" lon="10.513677"><ele>1800</ele></trkpt>
<trkpt lat="46.052451" lon="10.513629"><ele>1802</ele></trkpt>
<trkpt lat="46.052446" lon="10.513524"><ele>1807</ele></trkpt>
<trkpt lat="46.052446" lon="10.513524"><ele>1807</ele></trkpt>
<trkpt lat="46.052542" lon="10.513594"><ele>1805</ele></trkpt>
<trkpt lat="46.052719" lon="10.513655"><ele>1804</ele></trkpt>
<trkpt lat="46.053036" lon="10.513926"><ele>1795</ele></trkpt>
<trkpt lat="46.053068" lon="10.513929"><ele>1795</ele></trkpt>
<trkpt lat="46.053969" lon="10.513937"><ele>1800</ele></trkpt>
<trkpt lat="46.054001" lon="10.513938"><ele>1800</ele></trkpt>
<trkpt lat="46.054090" lon="10.513932"><ele>1800</ele></trkpt>
<trkpt lat="46.054240" lon="10.513954"><ele>1799</ele></trkpt>
<trkpt lat="46.054402" lon="10.513987"><ele>1798</ele></trkpt>
<trkpt lat="46.054461" lon="10.513989"><ele>1798</ele></trkpt>
<trkpt lat="46.054525" lon="10.513963"><ele>1798</ele></trkpt>
<trkpt lat="46.054618" lon="10.513869"><ele>1801</ele></trkpt>
<trkpt lat="46.054674" lon="10.513842"><ele>1802</ele></trkpt>
<trkpt lat="46.054864" lon="10.513826"><ele>1802</ele></trkpt>
<trkpt lat="46.054910" lon="10.513801"><ele>1803</ele></trkpt>
<trkpt lat="46.055012" lon="10.513701"><ele>1805</ele></trkpt>
<trkpt lat="46.055074" lon="10.513606"><ele>1808</ele></trkpt>
<trkpt lat="46.055116" lon="10.513539"><ele>1809</ele></trkpt>
<trkpt lat="46.055191" lon="10.513452"><ele>1812</ele></trkpt>
<trkpt lat="46.055290" lon="10.513434"><ele>1813</ele></trkpt>
<trkpt lat="46.055364" lon="10.513448"><ele>1812</ele></trkpt>
<trkpt lat="46.055423" lon="10.513503"><ele>1810</ele></trkpt>
<trkpt lat="46.055458" lon="10.513555"><ele>1809</ele></trkpt>
<trkpt lat="46.055538" lon="10.513646"><ele>1806</ele></trkpt>
<trkpt lat="46.055655" lon="10.513754"><ele>1803</ele></trkpt>
<trkpt lat="46.055730" lon="10.513775"><ele>1803</ele></trkpt>
<trkpt lat="46.055777" lon="10.513756"><ele>1803</ele></trkpt>
<trkpt lat="46.055884" lon="10.513772"><ele>1804</ele></trkpt>
<trkpt lat="46.056001" lon="10.513769"><ele>1804</ele></trkpt>
<trkpt lat="46.056117" lon="10.513732"><ele>1806</ele></trkpt>
<trkpt lat="46.056213" lon="10.513710"><ele>1807</ele></trkpt>
<trkpt lat="46.056400" lon="10.513781"><ele>1808</ele></trkpt>
<trkpt lat="46.056596" lon="10.513781"><ele>1810</ele></trkpt>
<trkpt lat="46.056696" lon="10.513849"><ele>1809</ele></trkpt>
<trkpt lat="46.056815" lon="10.513865"><ele>1809</ele></trkpt>
<trkpt lat="46.056989" lon="10.513895"><ele>1810</ele></trkpt>
<trkpt lat="46.057113" lon="10.513989"><ele>1808</ele></trkpt>
<trkpt lat="46.057225" lon="10.514118"><ele>1807</ele></trkpt>
<trkpt lat="46.057432" lon="10.514181"><ele>1807</ele></trkpt>
<trkpt lat="46.057764" lon="10.514133"><ele>1817</ele></trkpt>
<trkpt lat="46.057882" lon="10.514142"><ele>1820</ele></trkpt>
<trkpt lat="46.057949" lon="10.514148"><ele>1821</ele></trkpt>
<trkpt lat="46.057996" lon="10.514151"><ele>1823</ele></trkpt>
<trkpt lat="46.058067" lon="10.514159"><ele>1825</ele></trkpt>
<trkpt lat="46.058160" lon="10.514206"><ele>1826</ele></trkpt>
<trkpt lat="46.058286" lon="10.514320"><ele>1827</ele></trkpt>
<trkpt lat="46.058506" lon="10.514509"><ele>1828</ele></trkpt>
<trkpt lat="46.058775" lon="10.515098"><ele>1820</ele></trkpt>
<trkpt lat="46.059113" lon="10.515558"><ele>1822</ele></trkpt>
<trkpt lat="46.059374" lon="10.516025"><ele>1822</ele></trkpt>
<trkpt lat="46.059494" lon="10.516727"><ele>1812</ele></trkpt>
<trkpt lat="46.059901" lon="10.517901"><ele>1809</ele></trkpt>
<trkpt lat="46.060052" lon="10.518267"><ele>1810</ele></trkpt>
<trkpt lat="46.060339" lon="10.518630"><ele>1818</ele></trkpt>
<trkpt lat="46.060427" lon="10.518858"><ele>1818</ele></trkpt>
<trkpt lat="46.060969" lon="10.519516"><ele>1816</ele></trkpt>
<trkpt lat="46.061060" lon="10.519545"><ele>1823</ele></trkpt>
<trkpt lat="46.061341" lon="10.519838"><ele>1820</ele></trkpt>
<trkpt lat="46.061390" lon="10.520015"><ele>1818</ele></trkpt>
<trkpt lat="46.061696" lon="10.520325"><ele>1817</ele></trkpt>
<trkpt lat="46.062313" lon="10.521351"><ele>1812</ele></trkpt>
<trkpt lat="46.062649" lon="10.521598"><ele>1822</ele></trkpt>
<trkpt lat="46.062708" lon="10.521773"><ele>1819</ele></trkpt>
<trkpt lat="46.063211" lon="10.522586"><ele>1818</ele></trkpt>
<trkpt lat="46.063360" lon="10.522690"><ele>1823</ele></trkpt>
<trkpt lat="46.063592" lon="10.523024"><ele>1821</ele></trkpt>
<trkpt lat="46.063877" lon="10.523307"><ele>1821</ele></trkpt>
<trkpt lat="46.064113" lon="10.523659"><ele>1820</ele></trkpt>
<trkpt lat="46.064177" lon="10.523838"><ele>1818</ele></trkpt>
<trkpt lat="46.064279" lon="10.523874"><ele>1822</ele></trkpt>
<trkpt lat="46.064382" lon="10.523910"><ele>1826</ele></trkpt>
<trkpt lat="46.064454" lon="10.523997"><ele>1827</ele></trkpt>
<trkpt lat="46.064487" lon="10.524091"><ele>1826</ele></trkpt>
<trkpt lat="46.064614" lon="10.524454"><ele>1823</ele></trkpt>
<trkpt lat="46.064733" lon="10.524594"><ele>1826</ele></trkpt>
<trkpt lat="46.065452" lon="10.526154"><ele>1816</ele></trkpt>
<trkpt lat="46.065780" lon="10.526563"><ele>1817</ele></trkpt>
<trkpt lat="46.065877" lon="10.526689"><ele>1816</ele></trkpt>
<trkpt lat="46.066268" lon="10.527125"><ele>1817</ele></trkpt>
<trkpt lat="46.066426" lon="10.527269"><ele>1818</ele></trkpt>
<trkpt lat="46.066589" lon="10.527428"><ele>1818</ele></trkpt>
<trkpt lat="46.066663" lon="10.527547"><ele>1818</ele></trkpt>
<trkpt lat="46.066753" lon="10.527624"><ele>1819</ele></trkpt>
<trkpt lat="46.066833" lon="10.527760"><ele>1819</ele></trkpt>
<trkpt lat="46.066888" lon="10.527819"><ele>1820</ele></trkpt>
<trkpt lat="46.067080" lon="10.527880"><ele>1825</ele></trkpt>
<trkpt lat="46.067192" lon="10.528018"><ele>1826</ele></trkpt>
<trkpt lat="46.067323" lon="10.528354"><ele>1825</ele></trkpt>
<trkpt lat="46.067333" lon="10.528710"><ele>1822</ele></trkpt>
<trkpt lat="46.067428" lon="10.529031"><ele>1822</ele></trkpt>
<trkpt lat="46.067680" lon="10.529542"><ele>1824</ele></trkpt>
<trkpt lat="46.067981" lon="10.529986"><ele>1830</ele></trkpt>
<trkpt lat="46.068275" lon="10.530706"><ele>1829</ele></trkpt>
<trkpt lat="46.068639" lon="10.530988"><ele>1836</ele></trkpt>
<trkpt lat="46.068762" lon="10.531201"><ele>1835</ele></trkpt>
<trkpt lat="46.068998" lon="10.531870"><ele>1830</ele></trkpt>
<trkpt lat="46.069494" lon="10.532165"><ele>1843</ele></trkpt>
<trkpt lat="46.070624" lon="10.533374"><ele>1849</ele></trkpt>
<trkpt lat="46.071078" lon="10.534596"><ele>1836</ele></trkpt>
<trkpt lat="46.071321" lon="10.535467"><ele>1827</ele></trkpt>
<trkpt lat="46.071308" lon="10.535554"><ele>1825</ele></trkpt>
<trkpt lat="46.071317" lon="10.535721"><ele>1824</ele></trkpt>
<trkpt lat="46.071374" lon="10.535922"><ele>1825</ele></trkpt>
<trkpt lat="46.071377" lon="10.536057"><ele>1824</ele></trkpt>
<trkpt lat="46.071392" lon="10.536096"><ele>1825</ele></trkpt>
<trkpt lat="46.071428" lon="10.536289"><ele>1827</ele></trkpt>
<trkpt lat="46.071422" lon="10.536425"><ele>1827</ele></trkpt>
<trkpt lat="46.071418" lon="10.536494"><ele>1827</ele></trkpt>
<trkpt lat="46.071374" lon="10.536609"><ele>1826</ele></trkpt>
<trkpt lat="46.071337" lon="10.536724"><ele>1825</ele></trkpt>
<trkpt lat="46.071338" lon="10.536723"><ele>1825</ele></trkpt>
<trkpt lat="46.071337" lon="10.536724"><ele>1825</ele></trkpt>
<trkpt lat="46.071235" lon="10.536814"><ele>1822</ele></trkpt>
<trkpt lat="46.071082" lon="10.537043"><ele>1819</ele></trkpt>
<trkpt lat="46.070797" lon="10.537569"><ele>1815</ele></trkpt>
<trkpt lat="46.070776" lon="10.537757"><ele>1815</ele></trkpt>
<trkpt lat="46.070808" lon="10.537907"><ele>1816</ele></trkpt>
<trkpt lat="46.070933" lon="10.538223"><ele>1818</ele></trkpt>
<trkpt lat="46.070953" lon="10.538489"><ele>1817</ele></trkpt>
<trkpt lat="46.070680" lon="10.539090"><ele>1808</ele></trkpt>
<trkpt lat="46.070661" lon="10.539179"><ele>1807</ele></trkpt>
<trkpt lat="46.070654" lon="10.539570"><ele>1807</ele></trkpt>
<trkpt lat="46.070723" lon="10.540158"><ele>1809</ele></trkpt>
<trkpt lat="46.070678" lon="10.540384"><ele>1809</ele></trkpt>
<trkpt lat="46.070798" lon="10.540491"><ele>1810</ele></trkpt>
<trkpt lat="46.070848" lon="10.540587"><ele>1810</ele></trkpt>
<trkpt lat="46.070876" lon="10.540629"><ele>1810</ele></trkpt>
<trkpt lat="46.070902" lon="10.540669"><ele>1810</ele></trkpt>
<trkpt lat="46.071038" lon="10.540801"><ele>1810</ele></trkpt>
<trkpt lat="46.071175" lon="10.540804"><ele>1811</ele></trkpt>
<trkpt lat="46.071409" lon="10.540850"><ele>1813</ele></trkpt>
<trkpt lat="46.071622" lon="10.540809"><ele>1816</ele></trkpt>
<trkpt lat="46.071678" lon="10.540924"><ele>1816</ele></trkpt>
<trkpt lat="46.071824" lon="10.541020"><ele>1817</ele></trkpt>
<trkpt lat="46.071838" lon="10.541379"><ele>1816</ele></trkpt>
<trkpt lat="46.071966" lon="10.541608"><ele>1816</ele></trkpt>
<trkpt lat="46.072580" lon="10.542211"><ele>1819</ele></trkpt>
<trkpt lat="46.073132" lon="10.542945"><ele>1824</ele></trkpt>
<trkpt lat="46.073127" lon="10.543159"><ele>1821</ele></trkpt>
<trkpt lat="46.073166" lon="10.543265"><ele>1822</ele></trkpt>
<trkpt lat="46.073347" lon="10.543639"><ele>1822</ele></trkpt>
<trkpt lat="46.073431" lon="10.543684"><ele>1823</ele></trkpt>
<trkpt lat="46.073629" lon="10.544111"><ele>1824</ele></trkpt>
<trkpt lat="46.073924" lon="10.544228"><ele>1829</ele></trkpt>
<trkpt lat="46.074229" lon="10.544521"><ele>1831</ele></trkpt>
<trkpt lat="46.074362" lon="10.544909"><ele>1831</ele></trkpt>
<trkpt lat="46.074778" lon="10.545372"><ele>1836</ele></trkpt>
<trkpt lat="46.074823" lon="10.545520"><ele>1836</ele></trkpt>
<trkpt lat="46.075032" lon="10.545668"><ele>1839</ele></trkpt>
<trkpt lat="46.075392" lon="10.545771"><ele>1843</ele></trkpt>
<trkpt lat="46.075481" lon="10.545885"><ele>1844</ele></trkpt>
<trkpt lat="46.075610" lon="10.546357"><ele>1841</ele></trkpt>
<trkpt lat="46.075741" lon="10.546496"><ele>1841</ele></trkpt>
<trkpt lat="46.076249" lon="10.546686"><ele>1842</ele></trkpt>
<trkpt lat="46.076360" lon="10.546728"><ele>1842</ele></trkpt>
<trkpt lat="46.076408" lon="10.546826"><ele>1842</ele></trkpt>
<trkpt lat="46.076380" lon="10.547099"><ele>1840</ele></trkpt>
<trkpt lat="46.076608" lon="10.547880"><ele>1836</ele></trkpt>
<trkpt lat="46.076815" lon="10.548131"><ele>1837</ele></trkpt>
<trkpt lat="46.076977" lon="10.548151"><ele>1838</ele></trkpt>
<trkpt lat="46.077247" lon="10.548625"><ele>1838</ele></trkpt>
<trkpt lat="46.077141" lon="10.548862"><ele>1836</ele></trkpt>
<trkpt lat="46.077183" lon="10.549063"><ele>1836</ele></trkpt>
<trkpt lat="46.077432" lon="10.549370"><ele>1835</ele></trkpt>
<trkpt lat="46.077566" lon="10.549770"><ele>1835</ele></trkpt>
<trkpt lat="46.077747" lon="10.550001"><ele>1836</ele></trkpt>
<trkpt lat="46.078068" lon="10.550230"><ele>1838</ele></trkpt>
<trkpt lat="46.078134" lon="10.550277"><ele>1839</ele></trkpt>
<trkpt lat="46.078168" lon="10.550314"><ele>1839</ele></trkpt>
<trkpt lat="46.078639" lon="10.550827"><ele>1841</ele></trkpt>
<trkpt lat="46.078781" lon="10.550931"><ele>1842</ele></trkpt>
<trkpt lat="46.079193" lon="10.551233"><ele>1845</ele></trkpt>
<trkpt lat="46.079530" lon="10.551618"><ele>1846</ele></trkpt>
<trkpt lat="46.079589" lon="10.551624"><ele>1846</ele></trkpt>
<trkpt lat="46.079607" lon="10.551700"><ele>1846</ele></trkpt>
<trkpt lat="46.079616" lon="10.551740"><ele>1846</ele></trkpt>
<trkpt lat="46.079803" lon="10.551858"><ele>1846</ele></trkpt>
<trkpt lat="46.079901" lon="10.551994"><ele>1846</ele></trkpt>
<trkpt lat="46.079951" lon="10.552620"><ele>1843</ele></trkpt>
<trkpt lat="46.079998" lon="10.552809"><ele>1843</ele></trkpt>
<trkpt lat="46.080075" lon="10.552877"><ele>1843</ele></trkpt>
<trkpt lat="46.080145" lon="10.552922"><ele>1843</ele></trkpt>
<trkpt lat="46.080979" lon="10.552952"><ele>1851</ele></trkpt>
<trkpt lat="46.081065" lon="10.552874"><ele>1853</ele></trkpt>
<trkpt lat="46.081065" lon="10.552874"><ele>1853</ele></trkpt>
<trkpt lat="46.081087" lon="10.552831"><ele>1853</ele></trkpt>
<trkpt lat="46.081133" lon="10.552742"><ele>1855</ele></trkpt>
<trkpt lat="46.081331" lon="10.552713"><ele>1859</ele></trkpt>
<trkpt lat="46.081500" lon="10.552883"><ele>1861</ele></trkpt>
<trkpt lat="46.081737" lon="10.553618"><ele>1861</ele></trkpt>
<trkpt lat="46.082256" lon="10.554218"><ele>1867</ele></trkpt>
<trkpt lat="46.082520" lon="10.555218"><ele>1867</ele></trkpt>
<trkpt lat="46.082599" lon="10.555301"><ele>1869</ele></trkpt>
<trkpt lat="46.082644" lon="10.555607"><ele>1870</ele></trkpt>
<trkpt lat="46.082803" lon="10.556018"><ele>1873</ele></trkpt>
<trkpt lat="46.082867" lon="10.556067"><ele>1874</ele></trkpt>
<trkpt lat="46.082807" lon="10.556531"><ele>1875</ele></trkpt>
<trkpt lat="46.082890" lon="10.556554"><ele>1876</ele></trkpt>
<trkpt lat="46.082958" lon="10.556773"><ele>1878</ele></trkpt>
<trkpt lat="46.082954" lon="10.556977"><ele>1878</ele></trkpt>
<trkpt lat="46.082997" lon="10.557247"><ele>1878</ele></trkpt>
<trkpt lat="46.083131" lon="10.557531"><ele>1880</ele></trkpt>
<trkpt lat="46.083282" lon="10.557694"><ele>1882</ele></trkpt>
<trkpt lat="46.083531" lon="10.558354"><ele>1884</ele></trkpt>
<trkpt lat="46.083545" lon="10.558456"><ele>1884</ele></trkpt>
<trkpt lat="46.083522" lon="10.558478"><ele>1884</ele></trkpt>
<trkpt lat="46.083472" lon="10.558464"><ele>1884</ele></trkpt>
<trkpt lat="46.083367" lon="10.558525"><ele>1883</ele></trkpt>
<trkpt lat="46.083339" lon="10.558628"><ele>1882</ele></trkpt>
<trkpt lat="46.083318" lon="10.559084"><ele>1881</ele></trkpt>
<trkpt lat="46.083441" lon="10.559599"><ele>1881</ele></trkpt>
<trkpt lat="46.083509" lon="10.559736"><ele>1881</ele></trkpt>
<trkpt lat="46.083553" lon="10.559972"><ele>1881</ele></trkpt>
<trkpt lat="46.083558" lon="10.560092"><ele>1882</ele></trkpt>
<trkpt lat="46.083550" lon="10.560379"><ele>1884</ele></trkpt>
<trkpt lat="46.083588" lon="10.560688"><ele>1887</ele></trkpt>
<trkpt lat="46.083588" lon="10.560689"><ele>1887</ele></trkpt>
<trkpt lat="46.083629" lon="10.560810"><ele>1888</ele></trkpt>
<trkpt lat="46.083634" lon="10.560931"><ele>1889</ele></trkpt>
<trkpt lat="46.083666" lon="10.561080"><ele>1890</ele></trkpt>
<trkpt lat="46.083715" lon="10.561115"><ele>1889</ele></trkpt>
<trkpt lat="46.083750" lon="10.561203"><ele>1890</ele></trkpt>
<trkpt lat="46.083771" lon="10.561434"><ele>1892</ele></trkpt>
<trkpt lat="46.083842" lon="10.561709"><ele>1895</ele></trkpt>
<trkpt lat="46.083922" lon="10.561868"><ele>1895</ele></trkpt>
<trkpt lat="46.084023" lon="10.561957"><ele>1895</ele></trkpt>
<trkpt lat="46.084146" lon="10.562022"><ele>1894</ele></trkpt>
<trkpt lat="46.084232" lon="10.562107"><ele>1894</ele></trkpt>
<trkpt lat="46.084289" lon="10.562210"><ele>1894</ele></trkpt>
<trkpt lat="46.084307" lon="10.562251"><ele>1895</ele></trkpt>
<trkpt lat="46.084354" lon="10.562379"><ele>1896</ele></trkpt>
<trkpt lat="46.084353" lon="10.562460"><ele>1898</ele></trkpt>
<trkpt lat="46.084339" lon="10.562497"><ele>1899</ele></trkpt>
<trkpt lat="46.084338" lon="10.562526"><ele>1899</ele></trkpt>
<trkpt lat="46.084353" lon="10.562587"><ele>1900</ele></trkpt>
<trkpt lat="46.084377" lon="10.562654"><ele>1901</ele></trkpt>
<trkpt lat="46.084414" lon="10.562674"><ele>1900</ele></trkpt>
<trkpt lat="46.084449" lon="10.562698"><ele>1900</ele></trkpt>
<trkpt lat="46.084469" lon="10.562704"><ele>1899</ele></trkpt>
</trkseg></trk></gpx>
