<?xml version="1.0" encoding="UTF-8"?>
<gpx version="1.1" creator="Val di Fumo Trail Companion" xmlns="http://www.topografix.com/GPX/1/1">
<metadata>
<name>Variante sponda opposta del Chiese</name>
<desc>Traccia DERIVATA da OpenStreetMap (ODbL), non rilevata sul campo ne' confrontata con la traccia ufficiale SAT. Quote da DEM (stime).</desc>
<copyright author="OpenStreetMap contributors"><year>2026</year><license>https://opendatacommons.org/licenses/odbl/1-0/</license></copyright>
<time>2026-10-08T12:23:55Z</time>
</metadata>
<wpt lat="46.052050" lon="10.513409">
<ele>1807</ele>
<name>Parcheggio diga Malga Bissina</name>
</wpt>
<wpt lat="46.070927" lon="10.540559">
<ele>1810</ele>
<name>Malga Breguzzo</name>
</wpt>
<wpt lat="46.071698" lon="10.541518">
<ele>1814</ele>
<name>Cascata sul Chiese (nodo OSM)</name>
</wpt>
<wpt lat="46.083538" lon="10.558438">
<ele>1884</ele>
<name>Malga Val di Fumo</name>
</wpt>
<wpt lat="46.084493" lon="10.562531">
<ele>1896</ele>
<name>Rifugio Val di Fumo</name>
</wpt>
<trk><name>Variante sponda opposta del Chiese</name><desc>Traccia DERIVATA da OpenStreetMap (ODbL), non rilevata sul campo ne' confrontata con la traccia ufficiale SAT. Quote da DEM (stime).</desc><trkseg>
<trkpt lat="46.051978" lon="10.513741"><ele>1792</ele></trkpt>
<trkpt lat="46.052073" lon="10.513784"><ele>1791</ele></trkpt>
<trkpt lat="46.052123" lon="10.513801"><ele>1791</ele></trkpt>
<trkpt lat="46.052142" lon="10.513816"><ele>1791</ele></trkpt>
<trkpt lat="46.052192" lon="10.513881"><ele>1788</ele></trkpt>
<trkpt lat="46.052222" lon="10.513908"><ele>1788</ele></trkpt>
<trkpt lat="46.052239" lon="10.513900"><ele>1788</ele></trkpt>
<trkpt lat="46.052279" lon="10.513845"><ele>1791</ele></trkpt>
<trkpt lat="46.052362" lon="10.513820"><ele>1793</ele></trkpt>
<trkpt lat="46.052455" lon="10.513803"><ele>1794</ele></trkpt>
<trkpt lat="46.052514" lon="10.513768"><ele>1797</ele></trkpt>
<trkpt lat="46.052546" lon="10.513749"><ele>1798</ele></trkpt>
<trkpt lat="46.052546" lon="10.513727"><ele>1799</ele></trkpt>
<trkpt lat="46.052480" lon="10.513677"><ele>1800</ele></trkpt>
<trkpt lat="46.052451" lon="10.513629"><ele>1802</ele></trkpt>
<trkpt lat="46.052446" lon="10.513524"><ele>1807</ele></trkpt>
<trkpt lat="46.052446" lon="10.513524"><ele>1807</ele></trkpt>
<trkpt lat="46.052542" lon="10.513594"><ele>1805</ele></trkpt>
<trkpt lat="46.052719" lon="10.513655"><ele>1804</ele></trkpt>
<trkpt lat="46.053036" lon="10.513926"><ele>1795</ele></trkpt>
<trkpt lat="46.053068" lon="10.513929"><ele>1795</ele></trkpt>
<trkpt lat="46.053969" lon="10.513937"><ele>1800</ele></trkpt>
<trkpt lat="46.054001" lon="10.513938"><ele>1800</ele></trkpt>
<trkpt lat="46.054090" lon="10.513932"><ele>1800</ele></trkpt>
<trkpt lat="46.054240" lon="10.513954"><ele>1799</ele></trkpt>
<trkpt lat="46.054402" lon="10.513987"><ele>1798</ele></trkpt>
<trkpt lat="46.054461" lon="10.513989"><ele>1798</ele></trkpt>
<trkpt lat="46.054525" lon="10.513963"><ele>1798</ele></trkpt>
<trkpt lat="46.054618" lon="10.513869"><ele>1801</ele></trkpt>
<trkpt lat="46.054674" lon="10.513842"><ele>1802</ele></trkpt>
<trkpt lat="46.054864" lon="10.513826"><ele>1802</ele></trkpt>
<trkpt lat="46.054910" lon="10.513801"><ele>1803</ele></trkpt>
<trkpt lat="46.055012" lon="10.513701"><ele>1805</ele></trkpt>
<trkpt lat="46.055074" lon="10.513606"><ele>1808</ele></trkpt>
<trkpt lat="46.055116" lon="10.513539"><ele>1809</ele></trkpt>
<trkpt lat="46.055191" lon="10.513452"><ele>1812</ele></trkpt>
<trkpt lat="46.055290" lon="10.513434"><ele>1813</ele></trkpt>
<trkpt lat="46.055364" lon="10.513448"><ele>1812</ele></trkpt>
<trkpt lat="46.055423" lon="10.513503"><ele>1810</ele></trkpt>
<trkpt lat="46.055458" lon="10.513555"><ele>1809</ele></trkpt>
<trkpt lat="46.055538" lon="10.513646"><ele>1806</ele></trkpt>
<trkpt lat="46.055655" lon="10.513754"><ele>1803</ele></trkpt>
<trkpt lat="46.055730" lon="10.513775"><ele>1803</ele></trkpt>
<trkpt lat="46.055777" lon="10.513756"><ele>1803</ele></trkpt>
<trkpt lat="46.055884" lon="10.513772"><ele>1804</ele></trkpt>
<trkpt lat="46.056001" lon="10.513769"><ele>1804</ele></trkpt>
<trkpt lat="46.056117" lon="10.513732"><ele>1806</ele></trkpt>
<trkpt lat="46.056213" lon="10.513710"><ele>1807</ele></trkpt>
<trkpt lat="46.056400" lon="10.513781"><ele>1808</ele></trkpt>
<trkpt lat="46.056596" lon="10.513781"><ele>1810</ele></trkpt>
<trkpt lat="46.056696" lon="10.513849"><ele>1809</ele></trkpt>
<trkpt lat="46.056815" lon="10.513865"><ele>1809</ele></trkpt>
<trkpt lat="46.056989" lon="10.513895"><ele>1810</ele></trkpt>
<trkpt lat="46.057113" lon="10.513989"><ele>1808</ele></trkpt>
<trkpt lat="46.057225" lon="10.514118"><ele>1807</ele></trkpt>
<trkpt lat="46.057432" lon="10.514181"><ele>1807</ele></trkpt>
<trkpt lat="46.057764" lon="10.514133"><ele>1817</ele></trkpt>
<trkpt lat="46.057882" lon="10.514142"><ele>1820</ele></trkpt>
<trkpt lat="46.057949" lon="10.514148"><ele>1821</ele></trkpt>
<trkpt lat="46.057996" lon="10.514151"><ele>1823</ele></trkpt>
<trkpt lat="46.058067" lon="10.514159"><ele>1825</ele></trkpt>
<trkpt lat="46.058160" lon="10.514206"><ele>1826</ele></trkpt>
<trkpt lat="46.058286" lon="10.514320"><ele>1827</ele></trkpt>
<trkpt lat="46.058506" lon="10.514509"><ele>1828</ele></trkpt>
<trkpt lat="46.058775" lon="10.515098"><ele>1820</ele></trkpt>
<trkpt lat="46.059113" lon="10.515558"><ele>1822</ele></trkpt>
<trkpt lat="46.059374" lon="10.516025"><ele>1822</ele></trkpt>
<trkpt lat="46.059494" lon="10.516727"><ele>1812</ele></trkpt>
<trkpt lat="46.059901" lon="10.517901"><ele>1809</ele></trkpt>
<trkpt lat="46.060052" lon="10.518267"><ele>1810</ele></trkpt>
<trkpt lat="46.060339" lon="10.518630"><ele>1818</ele></trkpt>
<trkpt lat="46.060427" lon="10.518858"><ele>1818</ele></trkpt>
<trkpt lat="46.060969" lon="10.519516"><ele>1816</ele></trkpt>
<trkpt lat="46.061060" lon="10.519545"><ele>1823</ele></trkpt>
<trkpt lat="46.061341" lon="10.519838"><ele>1820</ele></trkpt>
<trkpt lat="46.061390" lon="10.520015"><ele>1818</ele></trkpt>
<trkpt lat="46.061696" lon="10.520325"><ele>1817</ele></trkpt>
<trkpt lat="46.062313" lon="10.521351"><ele>1812</ele></trkpt>
<trkpt lat="46.062649" lon="10.521598"><ele>1822</ele></trkpt>
<trkpt lat="46.062708" lon="10.521773"><ele>1819</ele></trkpt>
<trkpt lat="46.063211" lon="10.522586"><ele>1818</ele></trkpt>
<trkpt lat="46.063360" lon="10.522690"><ele>1823</ele></trkpt>
<trkpt lat="46.063592" lon="10.523024"><ele>1821</ele></trkpt>
<trkpt lat="46.063877" lon="10.523307"><ele>1821</ele></trkpt>
<trkpt lat="46.064113" lon="10.523659"><ele>1820</ele></trkpt>
<trkpt lat="46.064177" lon="10.523838"><ele>1818</ele></trkpt>
<trkpt lat="46.064279" lon="10.523874"><ele>1822</ele></trkpt>
<trkpt lat="46.064382" lon="10.523910"><ele>1826</ele></trkpt>
<trkpt lat="46.064454" lon="10.523997"><ele>1827</ele></trkpt>
<trkpt lat="46.064487" lon="10.524091"><ele>1826</ele></trkpt>
<trkpt lat="46.064614" lon="10.524454"><ele>1823</ele></trkpt>
<trkpt lat="46.064733" lon="10.524594"><ele>1826</ele></trkpt>
<trkpt lat="46.065452" lon="10.526154"><ele>1816</ele></trkpt>
<trkpt lat="46.065780" lon="10.526563"><ele>1817</ele></trkpt>
<trkpt lat="46.065877" lon="10.526689"><ele>1816</ele></trkpt>
<trkpt lat="46.066268" lon="10.527125"><ele>1817</ele></trkpt>
<trkpt lat="46.066426" lon="10.527269"><ele>1818</ele></trkpt>
<trkpt lat="46.066589" lon="10.527428"><ele>1818</ele></trkpt>
<trkpt lat="46.066663" lon="10.527547"><ele>1818</ele></trkpt>
<trkpt lat="46.066753" lon="10.527624"><ele>1819</ele></trkpt>
<trkpt lat="46.066833" lon="10.527760"><ele>1819</ele></trkpt>
<trkpt lat="46.066888" lon="10.527819"><ele>1820</ele></trkpt>
<trkpt lat="46.067080" lon="10.527880"><ele>1825</ele></trkpt>
<trkpt lat="46.067192" lon="10.528018"><ele>1826</ele></trkpt>
<trkpt lat="46.067323" lon="10.528354"><ele>1825</ele></trkpt>
<trkpt lat="46.067333" lon="10.528710"><ele>1822</ele></trkpt>
<trkpt lat="46.067428" lon="10.529031"><ele>1822</ele></trkpt>
<trkpt lat="46.067680" lon="10.529542"><ele>1824</ele></trkpt>
<trkpt lat="46.067981" lon="10.529986"><ele>1830</ele></trkpt>
<trkpt lat="46.068275" lon="10.530706"><ele>1829</ele></trkpt>
<trkpt lat="46.068639" lon="10.530988"><ele>1836</ele></trkpt>
<trkpt lat="46.068762" lon="10.531201"><ele>1835</ele></trkpt>
<trkpt lat="46.068998" lon="10.531870"><ele>1830</ele></trkpt>
<trkpt lat="46.069494" lon="10.532165"><ele>1843</ele></trkpt>
<trkpt lat="46.070624" lon="10.533374"><ele>1849</ele></trkpt>
<trkpt lat="46.071078" lon="10.534596"><ele>1836</ele></trkpt>
<trkpt lat="46.071321" lon="10.535467"><ele>1827</ele></trkpt>
<trkpt lat="46.071308" lon="10.535554"><ele>1825</ele></trkpt>
<trkpt lat="46.071317" lon="10.535721"><ele>1824</ele></trkpt>
<trkpt lat="46.071374" lon="10.535922"><ele>1825</ele></trkpt>
<trkpt lat="46.071377" lon="10.536057"><ele>1824</ele></trkpt>
<trkpt lat="46.071392" lon="10.536096"><ele>1825</ele></trkpt>
<trkpt lat="46.071428" lon="10.536289"><ele>1827</ele></trkpt>
<trkpt lat="46.071422" lon="10.536425"><ele>1827</ele></trkpt>
<trkpt lat="46.071418" lon="10.536494"><ele>1827</ele></trkpt>
<trkpt lat="46.071374" lon="10.536609"><ele>1826</ele></trkpt>
<trkpt lat="46.071337" lon="10.536724"><ele>1825</ele></trkpt>
<trkpt lat="46.071338" lon="10.536723"><ele>1825</ele></trkpt>
<trkpt lat="46.071337" lon="10.536724"><ele>1825</ele></trkpt>
<trkpt lat="46.071235" lon="10.536814"><ele>1822</ele></trkpt>
<trkpt lat="46.071082" lon="10.537043"><ele>1819</ele></trkpt>
<trkpt lat="46.070797" lon="10.537569"><ele>1815</ele></trkpt>
<trkpt lat="46.070776" lon="10.537757"><ele>1815</ele></trkpt>
<trkpt lat="46.070808" lon="10.537907"><ele>1816</ele></trkpt>
<trkpt lat="46.070933" lon="10.538223"><ele>1818</ele></trkpt>
<trkpt lat="46.070953" lon="10.538489"><ele>1817</ele></trkpt>
<trkpt lat="46.070680" lon="10.539090"><ele>1808</ele></trkpt>
<trkpt lat="46.070661" lon="10.539179"><ele>1807</ele></trkpt>
<trkpt lat="46.070654" lon="10.539570"><ele>1807</ele></trkpt>
<trkpt lat="46.070723" lon="10.540158"><ele>1809</ele></trkpt>
<trkpt lat="46.070678" lon="10.540384"><ele>1809</ele></trkpt>
<trkpt lat="46.070798" lon="10.540491"><ele>1810</ele></trkpt>
<trkpt lat="46.070848" lon="10.540587"><ele>1810</ele></trkpt>
<trkpt lat="46.070876" lon="10.540629"><ele>1810</ele></trkpt>
<trkpt lat="46.070902" lon="10.540669"><ele>1810</ele></trkpt>
<trkpt lat="46.071038" lon="10.540801"><ele>1810</ele></trkpt>
<trkpt lat="46.071088" lon="10.540907"><ele>1810</ele></trkpt>
<trkpt lat="46.071082" lon="10.540983"><ele>1810</ele></trkpt>
<trkpt lat="46.071075" lon="10.541058"><ele>1810</ele></trkpt>
<trkpt lat="46.071070" lon="10.541122"><ele>1810</ele></trkpt>
<trkpt lat="46.071066" lon="10.541190"><ele>1809</ele></trkpt>
<trkpt lat="46.071079" lon="10.541300"><ele>1809</ele></trkpt>
<trkpt lat="46.071049" lon="10.541403"><ele>1808</ele></trkpt>
<trkpt lat="46.071055" lon="10.541433"><ele>1808</ele></trkpt>
<trkpt lat="46.071125" lon="10.541567"><ele>1808</ele></trkpt>
<trkpt lat="46.071238" lon="10.541718"><ele>1809</ele></trkpt>
<trkpt lat="46.071433" lon="10.541809"><ele>1810</ele></trkpt>
<trkpt lat="46.071525" lon="10.541900"><ele>1811</ele></trkpt>
<trkpt lat="46.071781" lon="10.541963"><ele>1813</ele></trkpt>
<trkpt lat="46.071919" lon="10.542063"><ele>1813</ele></trkpt>
<trkpt lat="46.072173" lon="10.542320"><ele>1813</ele></trkpt>
<trkpt lat="46.072353" lon="10.542474"><ele>1813</ele></trkpt>
<trkpt lat="46.072395" lon="10.542514"><ele>1813</ele></trkpt>
<trkpt lat="46.072456" lon="10.542580"><ele>1813</ele></trkpt>
<trkpt lat="46.072597" lon="10.542921"><ele>1812</ele></trkpt>
<trkpt lat="46.072553" lon="10.543335"><ele>1810</ele></trkpt>
<trkpt lat="46.072534" lon="10.543571"><ele>1811</ele></trkpt>
<trkpt lat="46.072492" lon="10.543909"><ele>1812</ele></trkpt>
<trkpt lat="46.072538" lon="10.544157"><ele>1813</ele></trkpt>
<trkpt lat="46.072557" lon="10.544254"><ele>1813</ele></trkpt>
<trkpt lat="46.072490" lon="10.544390"><ele>1814</ele></trkpt>
<trkpt lat="46.072532" lon="10.544586"><ele>1816</ele></trkpt>
<trkpt lat="46.072691" lon="10.544755"><ele>1817</ele></trkpt>
<trkpt lat="46.072911" lon="10.544846"><ele>1817</ele></trkpt>
<trkpt lat="46.073190" lon="10.544906"><ele>1817</ele></trkpt>
<trkpt lat="46.073330" lon="10.544919"><ele>1818</ele></trkpt>
<trkpt lat="46.073364" lon="10.545067"><ele>1818</ele></trkpt>
<trkpt lat="46.073400" lon="10.545287"><ele>1819</ele></trkpt>
<trkpt lat="46.073397" lon="10.545466"><ele>1821</ele></trkpt>
<trkpt lat="46.073397" lon="10.545632"><ele>1821</ele></trkpt>
<trkpt lat="46.073456" lon="10.545655"><ele>1821</ele></trkpt>
<trkpt lat="46.073530" lon="10.545654"><ele>1821</ele></trkpt>
<trkpt lat="46.073583" lon="10.545803"><ele>1822</ele></trkpt>
<trkpt lat="46.073608" lon="10.545830"><ele>1822</ele></trkpt>
<trkpt lat="46.073684" lon="10.545824"><ele>1822</ele></trkpt>
<trkpt lat="46.073781" lon="10.545939"><ele>1823</ele></trkpt>
<trkpt lat="46.073818" lon="10.546022"><ele>1823</ele></trkpt>
<trkpt lat="46.073888" lon="10.546078"><ele>1823</ele></trkpt>
<trkpt lat="46.073956" lon="10.546108"><ele>1823</ele></trkpt>
<trkpt lat="46.074003" lon="10.546234"><ele>1825</ele></trkpt>
<trkpt lat="46.074033" lon="10.546303"><ele>1826</ele></trkpt>
<trkpt lat="46.074103" lon="10.546314"><ele>1826</ele></trkpt>
<trkpt lat="46.074139" lon="10.546358"><ele>1826</ele></trkpt>
<trkpt lat="46.074190" lon="10.546421"><ele>1827</ele></trkpt>
<trkpt lat="46.074309" lon="10.546435"><ele>1827</ele></trkpt>
<trkpt lat="46.074360" lon="10.546400"><ele>1827</ele></trkpt>
<trkpt lat="46.074415" lon="10.546284"><ele>1827</ele></trkpt>
<trkpt lat="46.074459" lon="10.546258"><ele>1828</ele></trkpt>
<trkpt lat="46.074520" lon="10.546330"><ele>1828</ele></trkpt>
<trkpt lat="46.074582" lon="10.546420"><ele>1829</ele></trkpt>
<trkpt lat="46.074683" lon="10.546560"><ele>1830</ele></trkpt>
<trkpt lat="46.074797" lon="10.546681"><ele>1830</ele></trkpt>
<trkpt lat="46.074864" lon="10.546758"><ele>1830</ele></trkpt>
<trkpt lat="46.074907" lon="10.546926"><ele>1832</ele></trkpt>
<trkpt lat="46.075059" lon="10.547085"><ele>1832</ele></trkpt>
<trkpt lat="46.075151" lon="10.547199"><ele>1832</ele></trkpt>
<trkpt lat="46.075215" lon="10.547218"><ele>1832</ele></trkpt>
<trkpt lat="46.075252" lon="10.547330"><ele>1832</ele></trkpt>
<trkpt lat="46.075269" lon="10.547387"><ele>1833</ele></trkpt>
<trkpt lat="46.075341" lon="10.547494"><ele>1833</ele></trkpt>
<trkpt lat="46.075378" lon="10.547582"><ele>1833</ele></trkpt>
<trkpt lat="46.075441" lon="10.547639"><ele>1832</ele></trkpt>
<trkpt lat="46.075541" lon="10.547708"><ele>1832</ele></trkpt>
<trkpt lat="46.075575" lon="10.547736"><ele>1832</ele></trkpt>
<trkpt lat="46.075576" lon="10.547800"><ele>1832</ele></trkpt>
<trkpt lat="46.075557" lon="10.547904"><ele>1833</ele></trkpt>
<trkpt lat="46.075569" lon="10.548020"><ele>1833</ele></trkpt>
<trkpt lat="46.075581" lon="10.548152"><ele>1834</ele></trkpt>
<trkpt lat="46.075592" lon="10.548236"><ele>1834</ele></trkpt>
<trkpt lat="46.075656" lon="10.548322"><ele>1834</ele></trkpt>
<trkpt lat="46.075668" lon="10.548338"><ele>1834</ele></trkpt>
<trkpt lat="46.075730" lon="10.548424"><ele>1834</ele></trkpt>
<trkpt lat="46.075813" lon="10.548537"><ele>1835</ele></trkpt>
<trkpt lat="46.075885" lon="10.548691"><ele>1835</ele></trkpt>
<trkpt lat="46.075969" lon="10.548827"><ele>1836</ele></trkpt>
<trkpt lat="46.076028" lon="10.548868"><ele>1836</ele></trkpt>
<trkpt lat="46.076092" lon="10.548980"><ele>1836</ele></trkpt>
<trkpt lat="46.076145" lon="10.549054"><ele>1836</ele></trkpt>
<trkpt lat="46.076208" lon="10.549185"><ele>1836</ele></trkpt>
<trkpt lat="46.076262" lon="10.549311"><ele>1837</ele></trkpt>
<trkpt lat="46.076303" lon="10.549429"><ele>1837</ele></trkpt>
<trkpt lat="46.076331" lon="10.549600"><ele>1838</ele></trkpt>
<trkpt lat="46.076342" lon="10.549741"><ele>1838</ele></trkpt>
<trkpt lat="46.076380" lon="10.549910"><ele>1839</ele></trkpt>
<trkpt lat="46.076445" lon="10.550010"><ele>1840</ele></trkpt>
<trkpt lat="46.076540" lon="10.549997"><ele>1838</ele></trkpt>
<trkpt lat="46.076597" lon="10.549965"><ele>1837</ele></trkpt>
<trkpt lat="46.076666" lon="10.549996"><ele>1837</ele></trkpt>
<trkpt lat="46.076776" lon="10.550111"><ele>1837</ele></trkpt>
<trkpt lat="46.076858" lon="10.550195"><ele>1837</ele></trkpt>
<trkpt lat="46.076909" lon="10.550278"><ele>1837</ele></trkpt>
<trkpt lat="46.077008" lon="10.550399"><ele>1837</ele></trkpt>
<trkpt lat="46.077062" lon="10.550472"><ele>1837</ele></trkpt>
<trkpt lat="46.077126" lon="10.550602"><ele>1838</ele></trkpt>
<trkpt lat="46.077210" lon="10.550722"><ele>1838</ele></trkpt>
<trkpt lat="46.077257" lon="10.550815"><ele>1838</ele></trkpt>
<trkpt lat="46.077278" lon="10.550881"><ele>1838</ele></trkpt>
<trkpt lat="46.077375" lon="10.551004"><ele>1838</ele></trkpt>
<trkpt lat="46.077439" lon="10.551103"><ele>1838</ele></trkpt>
<trkpt lat="46.077523" lon="10.551176"><ele>1838</ele></trkpt>
<trkpt lat="46.077645" lon="10.551275"><ele>1838</ele></trkpt>
<trkpt lat="46.077719" lon="10.551260"><ele>1838</ele></trkpt>
<trkpt lat="46.077774" lon="10.551303"><ele>1838</ele></trkpt>
<trkpt lat="46.077859" lon="10.551372"><ele>1839</ele></trkpt>
<trkpt lat="46.077993" lon="10.551425"><ele>1839</ele></trkpt>
<trkpt lat="46.078097" lon="10.551443"><ele>1839</ele></trkpt>
<trkpt lat="46.078127" lon="10.551517"><ele>1840</ele></trkpt>
<trkpt lat="46.078216" lon="10.551544"><ele>1840</ele></trkpt>
<trkpt lat="46.078300" lon="10.551514"><ele>1840</ele></trkpt>
<trkpt lat="46.078476" lon="10.551493"><ele>1841</ele></trkpt>
<trkpt lat="46.078623" lon="10.551499"><ele>1841</ele></trkpt>
<trkpt lat="46.078711" lon="10.551554"><ele>1841</ele></trkpt>
<trkpt lat="46.078873" lon="10.551695"><ele>1842</ele></trkpt>
<trkpt lat="46.079027" lon="10.551930"><ele>1844</ele></trkpt>
<trkpt lat="46.079137" lon="10.552092"><ele>1844</ele></trkpt>
<trkpt lat="46.079252" lon="10.552103"><ele>1844</ele></trkpt>
<trkpt lat="46.079316" lon="10.552201"><ele>1844</ele></trkpt>
<trkpt lat="46.079356" lon="10.552334"><ele>1845</ele></trkpt>
<trkpt lat="46.079463" lon="10.552490"><ele>1844</ele></trkpt>
<trkpt lat="46.079578" lon="10.552661"><ele>1844</ele></trkpt>
<trkpt lat="46.079659" lon="10.552742"><ele>1844</ele></trkpt>
<trkpt lat="46.079681" lon="10.552840"><ele>1843</ele></trkpt>
<trkpt lat="46.079607" lon="10.552921"><ele>1844</ele></trkpt>
<trkpt lat="46.079555" lon="10.553011"><ele>1845</ele></trkpt>
<trkpt lat="46.079574" lon="10.553182"><ele>1845</ele></trkpt>
<trkpt lat="46.079544" lon="10.553330"><ele>1846</ele></trkpt>
<trkpt lat="46.079570" lon="10.553447"><ele>1846</ele></trkpt>
<trkpt lat="46.079627" lon="10.553556"><ele>1846</ele></trkpt>
<trkpt lat="46.079697" lon="10.553590"><ele>1845</ele></trkpt>
<trkpt lat="46.079767" lon="10.553560"><ele>1845</ele></trkpt>
<trkpt lat="46.079869" lon="10.553609"><ele>1844</ele></trkpt>
<trkpt lat="46.080025" lon="10.553667"><ele>1844</ele></trkpt>
<trkpt lat="46.080145" lon="10.553701"><ele>1844</ele></trkpt>
<trkpt lat="46.080238" lon="10.553785"><ele>1845</ele></trkpt>
<trkpt lat="46.080345" lon="10.553951"><ele>1845</ele></trkpt>
<trkpt lat="46.080466" lon="10.554094"><ele>1846</ele></trkpt>
<trkpt lat="46.080595" lon="10.554139"><ele>1846</ele></trkpt>
<trkpt lat="46.080650" lon="10.554191"><ele>1847</ele></trkpt>
<trkpt lat="46.080689" lon="10.554263"><ele>1847</ele></trkpt>
<trkpt lat="46.080740" lon="10.554308"><ele>1847</ele></trkpt>
<trkpt lat="46.080830" lon="10.554289"><ele>1847</ele></trkpt>
<trkpt lat="46.080883" lon="10.554317"><ele>1848</ele></trkpt>
<trkpt lat="46.080979" lon="10.554415"><ele>1848</ele></trkpt>
<trkpt lat="46.081065" lon="10.554543"><ele>1849</ele></trkpt>
<trkpt lat="46.081182" lon="10.554712"><ele>1849</ele></trkpt>
<trkpt lat="46.081292" lon="10.554774"><ele>1850</ele></trkpt>
<trkpt lat="46.081335" lon="10.554817"><ele>1850</ele></trkpt>
<trkpt lat="46.081345" lon="10.554898"><ele>1850</ele></trkpt>
<trkpt lat="46.081404" lon="10.555090"><ele>1851</ele></trkpt>
<trkpt lat="46.081445" lon="10.555259"><ele>1852</ele></trkpt>
<trkpt lat="46.081528" lon="10.555458"><ele>1853</ele></trkpt>
<trkpt lat="46.081584" lon="10.555582"><ele>1854</ele></trkpt>
<trkpt lat="46.081597" lon="10.555757"><ele>1855</ele></trkpt>
<trkpt lat="46.081620" lon="10.555838"><ele>1856</ele></trkpt>
<trkpt lat="46.081646" lon="10.555996"><ele>1857</ele></trkpt>
<trkpt lat="46.081657" lon="10.556103"><ele>1858</ele></trkpt>
<trkpt lat="46.081688" lon="10.556270"><ele>1859</ele></trkpt>
<trkpt lat="46.081691" lon="10.556436"><ele>1860</ele></trkpt>
<trkpt lat="46.081701" lon="10.556571"><ele>1861</ele></trkpt>
<trkpt lat="46.081729" lon="10.556695"><ele>1862</ele></trkpt>
<trkpt lat="46.081771" lon="10.556825"><ele>1863</ele></trkpt>
<trkpt lat="46.081774" lon="10.556889"><ele>1864</ele></trkpt>
<trkpt lat="46.081761" lon="10.557191"><ele>1867</ele></trkpt>
<trkpt lat="46.081746" lon="10.557406"><ele>1868</ele></trkpt>
<trkpt lat="46.081790" lon="10.557620"><ele>1870</ele></trkpt>
<trkpt lat="46.081906" lon="10.557732"><ele>1872</ele></trkpt>
<trkpt lat="46.082014" lon="10.557853"><ele>1873</ele></trkpt>
<trkpt lat="46.082098" lon="10.557971"><ele>1874</ele></trkpt>
<trkpt lat="46.082236" lon="10.558067"><ele>1874</ele></trkpt>
<trkpt lat="46.082363" lon="10.558075"><ele>1874</ele></trkpt>
<trkpt lat="46.082504" lon="10.558097"><ele>1874</ele></trkpt>
<trkpt lat="46.082630" lon="10.558105"><ele>1875</ele></trkpt>
<trkpt lat="46.082784" lon="10.558122"><ele>1876</ele></trkpt>
<trkpt lat="46.082888" lon="10.558133"><ele>1877</ele></trkpt>
<trkpt lat="46.082931" lon="10.558229"><ele>1878</ele></trkpt>
<trkpt lat="46.083033" lon="10.558375"><ele>1879</ele></trkpt>
<trkpt lat="46.083076" lon="10.558452"><ele>1879</ele></trkpt>
<trkpt lat="46.083171" lon="10.558544"><ele>1880</ele></trkpt>
<trkpt lat="46.083263" lon="10.558559"><ele>1881</ele></trkpt>
<trkpt lat="46.083367" lon="10.558525"><ele>1883</ele></trkpt>
<trkpt lat="46.083339" lon="10.558628"><ele>1882</ele></trkpt>
<trkpt lat="46.083318" lon="10.559084"><ele>1881</ele></trkpt>
<trkpt lat="46.083441" lon="10.559599"><ele>1881</ele></trkpt>
<trkpt lat="46.083509" lon="10.559736"><ele>1881</ele></trkpt>
<trkpt lat="46.083553" lon="10.559972"><ele>1881</ele></trkpt>
<trkpt lat="46.083558" lon="10.560092"><ele>1882</ele></trkpt>
<trkpt lat="46.083550" lon="10.560379"><ele>1884</ele></trkpt>
<trkpt lat="46.083588" lon="10.560688"><ele>1887</ele></trkpt>
<trkpt lat="46.083588" lon="10.560689"><ele>1887</ele></trkpt>
<trkpt lat="46.083629" lon="10.560810"><ele>1888</ele></trkpt>
<trkpt lat="46.083634" lon="10.560931"><ele>1889</ele></trkpt>
<trkpt lat="46.083666" lon="10.561080"><ele>1890</ele></trkpt>
<trkpt lat="46.083715" lon="10.561115"><ele>1889</ele></trkpt>
<trkpt lat="46.083750" lon="10.561203"><ele>1890</ele></trkpt>
<trkpt lat="46.083771" lon="10.561434"><ele>1892</ele></trkpt>
<trkpt lat="46.083842" lon="10.561709"><ele>1895</ele></trkpt>
<trkpt lat="46.083922" lon="10.561868"><ele>1895</ele></trkpt>
<trkpt lat="46.084023" lon="10.561957"><ele>1895</ele></trkpt>
<trkpt lat="46.084146" lon="10.562022"><ele>1894</ele></trkpt>
<trkpt lat="46.084232" lon="10.562107"><ele>1894</ele></trkpt>
<trkpt lat="46.084289" lon="10.562210"><ele>1894</ele></trkpt>
<trkpt lat="46.084307" lon="10.562251"><ele>1895</ele></trkpt>
<trkpt lat="46.084354" lon="10.562379"><ele>1896</ele></trkpt>
<trkpt lat="46.084353" lon="10.562460"><ele>1898</ele></trkpt>
<trkpt lat="46.084339" lon="10.562497"><ele>1899</ele></trkpt>
<trkpt lat="46.084338" lon="10.562526"><ele>1899</ele></trkpt>
<trkpt lat="46.084353" lon="10.562587"><ele>1900</ele></trkpt>
<trkpt lat="46.084377" lon="10.562654"><ele>1901</ele></trkpt>
<trkpt lat="46.084414" lon="10.562674"><ele>1900</ele></trkpt>
<trkpt lat="46.084449" lon="10.562698"><ele>1900</ele></trkpt>
<trkpt lat="46.084469" lon="10.562704"><ele>1899</ele></trkpt>
</trkseg></trk></gpx>
