{"type":"FeatureCollection","features":[{"type":"Feature","geometry":{"type":"LineString","coordinates":[[10.48877,46.08459],[10.48871,46.08462],[10.48871,46.08462]]},"properties":{"cls":"path","osm":"w356941812@1"}},{"type":"Feature","geometry":{"type":"LineString","coordinates":[[10.48812,46.08486],[10.48808,46.08487],[10.48808,46.08487]]},"properties":{"cls":"path","osm":"w356941812@1"}},{"type":"Feature","geometry":{"type":"LineString","coordinates":[[10.49714,46.08433],[10.49697,46.08441]]},"properties":{"cls":"path","osm":"w356941810@1"}},{"type":"Feature","geometry":{"type":"LineString","coordinates":[[10.5664,45.99907],[10.56636,45.99901],[10.56636,45.99901]]},"properties":{"cls":"path","osm":"w1326314843@1"}},{"type":"Feature","geometry":{"type":"LineString","coordinates":[[10.51282,46.0358],[10.51286,46.03576]]},"properties":{"cls":"footway","osm":"w240957220@2"}},{"type":"Feature","geometry":{"type":"LineString","coordinates":[[10.51441,46.03244],[10.51428,46.0324]]},"properties":{"cls":"footway","osm":"w240957219@3"}},{"type":"Feature","geometry":{"type":"LineString","coordinates":[[10.5657,46.0959],[10.5657,46.0959],[10.56549,46.09591]]},"properties":{"cls":"path","osm":"w1116050812@1"}},{"type":"Feature","geometry":{"type":"LineString","coordinates":[[10.55852,46.08337],[10.55846,46.08347]]},"properties":{"cls":"footway","osm":"w1114890567@1"}},{"type":"Feature","geometry":{"type":"LineString","coordinates":[[10.51504,46.00924],[10.51504,46.00924],[10.51481,46.00934]]},"properties":{"cls":"tertiary","osm":"r3253283@23"}},{"type":"Feature","geometry":{"type":"LineString","coordinates":[[10.51359,46.01017],[10.51295,46.00982]]},"properties":{"cls":"tertiary","osm":"r3253283@23"}},{"type":"Feature","geometry":{"type":"LineString","coordinates":[[10.51263,46.00924],[10.5126,46.00917]]},"properties":{"cls":"tertiary","osm":"r3253283@23"}},{"type":"Feature","geometry":{"type":"LineString","coordinates":[[10.51198,46.00917],[10.51198,46.00917],[10.51196,46.00925]]},"properties":{"cls":"tertiary","osm":"r3253283@23"}},{"type":"Feature","geometry":{"type":"LineString","coordinates":[[10.51149,46.00925],[10.51149,46.00925],[10.51146,46.00918],[10.51146,46.00918]]},"properties":{"cls":"tertiary","osm":"r3253283@23"}},{"type":"Feature","geometry":{"type":"LineString","coordinates":[[10.51105,46.00918],[10.51107,46.00924]]},"properties":{"cls":"tertiary","osm":"r3253283@23"}},{"type":"Feature","geometry":{"type":"LineString","coordinates":[[10.51214,46.01464],[10.51246,46.01466]]},"properties":{"cls":"tertiary","osm":"r3253283@23"}},{"type":"Feature","geometry":{"type":"LineString","coordinates":[[10.51348,46.0237],[10.51348,46.0237],[10.51351,46.02378],[10.51351,46.02378]]},"properties":{"cls":"tertiary","osm":"r3253283@23"}},{"type":"Feature","geometry":{"type":"LineString","coordinates":[[10.51359,46.0273],[10.51359,46.0273],[10.51358,46.02736]]},"properties":{"cls":"tertiary","osm":"r3253283@23"}},{"type":"Feature","geometry":{"type":"LineString","coordinates":[[10.51318,46.02921],[10.51318,46.02921],[10.513,46.02937]]},"properties":{"cls":"tertiary","osm":"r3253283@23"}},{"type":"Feature","geometry":{"type":"LineString","coordinates":[[10.50967,46.04007],[10.50971,46.04014],[10.50971,46.04014]]},"properties":{"cls":"tertiary","osm":"r3253283@23"}},{"type":"Feature","geometry":{"type":"LineString","coordinates":[[10.50343,46.00122],[10.50343,46.00122],[10.50331,46.00132],[10.50329,46.00133]]},"properties":{"cls":"path","osm":"w228119281@10"}},{"type":"Feature","geometry":{"type":"LineString","coordinates":[[10.48964,45.99755],[10.48964,45.99755],[10.4896,45.99751],[10.4896,45.99751]]},"properties":{"cls":"path","osm":"w228119281@10"}},{"type":"Feature","geometry":{"type":"LineString","coordinates":[[10.51414,46.05788],[10.51414,46.05788],[10.51415,46.05795]]},"properties":{"cls":"track","osm":"w38564823@8"}},{"type":"Feature","geometry":{"type":"LineString","coordinates":[[10.51415,46.058],[10.51415,46.058],[10.51416,46.05807]]},"properties":{"cls":"track","osm":"w38564823@8"}},{"type":"Feature","geometry":{"type":"LineString","coordinates":[[10.55028,46.07813],[10.55031,46.07817]]},"properties":{"cls":"footway","osm":"w240878912@3"}},{"type":"Feature","geometry":{"type":"LineString","coordinates":[[10.51278,46.00924],[10.51281,46.00919],[10.51281,46.00918]]},"properties":{"cls":"service","osm":"w1423631183@1"}},{"type":"Feature","geometry":{"type":"LineString","coordinates":[[10.59772,46.01375],[10.598,46.01374],[10.598,46.01374]]},"properties":{"cls":"path","osm":"w234455819@4"}},{"type":"Feature","geometry":{"type":"LineString","coordinates":[[10.54979,46.02768],[10.54972,46.0277]]},"properties":{"cls":"footway","osm":"w231868028@5"}},{"type":"Feature","geometry":{"type":"LineString","coordinates":[[10.55426,46.08069],[10.55431,46.08074]]},"properties":{"cls":"footway","osm":"w230246479@3"}},{"type":"Feature","geometry":{"type":"LineString","coordinates":[[10.59945,46.05345],[10.59945,46.05345],[10.59944,46.05334]]},"properties":{"cls":"path","osm":"w38548845@2"}},{"type":"Feature","geometry":{"type":"LineString","coordinates":[[10.52966,45.98894],[10.52977,45.98905]]},"properties":{"cls":"path","osm":"w241101044@5"}},{"type":"Feature","geometry":{"type":"LineString","coordinates":[[10.56352,46.08611],[10.56352,46.08611],[10.56358,46.08616]]},"properties":{"cls":"path","osm":"w229003180@11"}},{"type":"Feature","geometry":{"type":"LineString","coordinates":[[10.48726,46.08374],[10.48726,46.08374],[10.48732,46.08367],[10.48732,46.08367]]},"properties":{"cls":"path","osm":"w1124221764@1"}},{"type":"Feature","geometry":{"type":"LineString","coordinates":[[10.5308,46.01713],[10.5308,46.01713],[10.53081,46.01722]]},"properties":{"cls":"path","osm":"w177352104@9"}},{"type":"Feature","geometry":{"type":"LineString","coordinates":[[10.53676,46.02099],[10.53686,46.02099]]},"properties":{"cls":"path","osm":"w177352104@9"}},{"type":"Feature","geometry":{"type":"LineString","coordinates":[[10.51151,46.00344],[10.51152,46.00324]]},"properties":{"cls":"track","osm":"w228119292@4"}},{"type":"Feature","geometry":{"type":"LineString","coordinates":[[10.56162,46.08473],[10.56157,46.08492]]},"properties":{"cls":"footway","osm":"w229003184@4"}},{"type":"Feature","geometry":{"type":"LineString","coordinates":[[10.54112,46.07107],[10.54119,46.07107]]},"properties":{"cls":"footway","osm":"w232207658@5"}},{"type":"Feature","geometry":{"type":"LineString","coordinates":[[10.52293,45.9972],[10.523,45.99723]]},"properties":{"cls":"service","osm":"w256517462@3"}},{"type":"Feature","geometry":{"type":"LineString","coordinates":[[10.54098,46.07108],[10.54106,46.07108]]},"properties":{"cls":"footway","osm":"w511165924@1"}},{"type":"Feature","geometry":{"type":"LineString","coordinates":[[10.54081,46.07162],[10.54092,46.07168]]},"properties":{"cls":"footway","osm":"w232215958@3"}},{"type":"Feature","geometry":{"type":"LineString","coordinates":[[10.51562,46.0499],[10.5157,46.04988]]},"properties":{"cls":"path","osm":"w519429643@3"}},{"type":"Feature","geometry":{"type":"LineString","coordinates":[[10.5354,45.98486],[10.535,45.98494],[10.535,45.98494]]},"properties":{"cls":"track","osm":"w1105345104@2"}},{"type":"Feature","geometry":{"type":"LineString","coordinates":[[10.49741,46.07894],[10.49778,46.07988]]},"properties":{"cls":"path","osm":"w1549584167@2"}}]}