{"type":"FeatureCollection","features":[{"type":"Feature","geometry":{"type":"LineString","coordinates":[[10.58875,46.04949],[10.58892,46.04982],[10.58941,46.0501],[10.5895,46.05033],[10.58987,46.05058],[10.59005,46.05085],[10.59149,46.05184],[10.59251,46.05223],[10.59305,46.0529],[10.59383,46.0532],[10.59443,46.05357],[10.59469,46.0535],[10.59521,46.05382],[10.59591,46.05406],[10.59608,46.05477],[10.5965,46.05499]]},"properties":{"cls":"stream"}},{"type":"Feature","geometry":{"type":"LineString","coordinates":[[10.47959,46.09511],[10.48003,46.09456],[10.48009,46.09431],[10.48001,46.09366],[10.47979,46.09315]]},"properties":{"cls":"stream"}},{"type":"Feature","geometry":{"type":"LineString","coordinates":[[10.52336,45.99599],[10.52418,45.99568]]},"properties":{"cls":"canal"}},{"type":"Feature","geometry":{"type":"LineString","coordinates":[[10.51726,46.05209],[10.51704,46.05185]]},"properties":{"cls":"stream"}},{"type":"Feature","geometry":{"type":"LineString","coordinates":[[10.51223,46.00791],[10.51257,46.00789]]},"properties":{"cls":"canal","name":"Galleria di derivazione in pressione"}},{"type":"Feature","geometry":{"type":"LineString","coordinates":[[10.52115,46.05335],[10.52109,46.05322]]},"properties":{"cls":"canal"}},{"type":"Feature","geometry":{"type":"LineString","coordinates":[[10.52143,46.05354],[10.52096,46.05375],[10.52068,46.05404],[10.52022,46.05415],[10.51925,46.0541]]},"properties":{"cls":"stream"}},{"type":"Feature","geometry":{"type":"LineString","coordinates":[[10.50537,46.09485],[10.50494,46.09468],[10.50448,46.09481],[10.50418,46.09428]]},"properties":{"cls":"stream"}},{"type":"Feature","geometry":{"type":"LineString","coordinates":[[10.47964,46.06358],[10.47594,46.06643],[10.47537,46.06725],[10.47479,46.06868],[10.47463,46.06887],[10.4732,46.06957],[10.47256,46.06974],[10.47176,46.07038],[10.47069,46.07078],[10.46997,46.07135]]},"properties":{"cls":"stream"}},{"type":"Feature","geometry":{"type":"LineString","coordinates":[[10.50298,46.06274],[10.50358,46.06272],[10.50377,46.06256],[10.50492,46.06239],[10.50551,46.06219]]},"properties":{"cls":"stream"}},{"type":"Feature","geometry":{"type":"LineString","coordinates":[[10.51282,46.05248],[10.51099,46.05093],[10.50415,46.0461],[10.50293,46.0349],[10.50126,46.0213],[10.50278,46.01255],[10.50932,46.00865],[10.51193,46.00792],[10.51223,46.00791]]},"properties":{"cls":"canal","name":"Galleria di derivazione in pressione"}},{"type":"Feature","geometry":{"type":"LineString","coordinates":[[10.59144,46.0549],[10.59294,46.05507],[10.59343,46.05488],[10.59399,46.05482],[10.59431,46.05414],[10.59443,46.05357]]},"properties":{"cls":"stream"}},{"type":"Feature","geometry":{"type":"LineString","coordinates":[[10.56547,46.08922],[10.56464,46.08882],[10.56405,46.08869],[10.56367,46.0883],[10.56354,46.08801],[10.56363,46.08739],[10.56334,46.08711],[10.56349,46.08687]]},"properties":{"cls":"stream","name":"Fiume Chiese"}},{"type":"Feature","geometry":{"type":"LineString","coordinates":[[10.49623,46.06344],[10.49644,46.06349],[10.49707,46.06338],[10.49859,46.06416],[10.50029,46.0642],[10.50079,46.06406],[10.501,46.06379],[10.50164,46.06374],[10.50216,46.06345],[10.50247,46.06339],[10.50277,46.06347],[10.50345,46.06345],[10.50475,46.06315],[10.50541,46.06265],[10.50532,46.06252],[10.50551,46.06219],[10.5061,46.06184],[10.5066,46.06167],[10.50675,46.06132],[10.5073,46.06112],[10.50736,46.06045],[10.50746,46.06035],[10.50749,46.06007],[10.50829,46.05929],[10.50895,46.05911],[10.50911,46.05916],[10.50996,46.05881],[10.51081,46.05862],[10.51224,46.05787],[10.51272,46.05807],[10.5132,46.05804],[10.51331,46.05812],[10.51355,46.05801],[10.51396,46.05805],[10.51485,46.05791]]},"properties":{"cls":"stream"}},{"type":"Feature","geometry":{"type":"LineString","coordinates":[[10.47926,46.09457],[10.47955,46.09402],[10.47979,46.09315]]},"properties":{"cls":"stream"}},{"type":"Feature","geometry":{"type":"LineString","coordinates":[[10.54134,46.07527],[10.54192,46.07449],[10.54193,46.07412],[10.54159,46.07424],[10.54162,46.07405],[10.54154,46.07399],[10.54099,46.07389],[10.54084,46.07343],[10.54064,46.07322],[10.5408,46.07306],[10.54078,46.07281],[10.54065,46.07245],[10.5404,46.07221],[10.54089,46.07161],[10.54092,46.07144],[10.54115,46.07126]]},"properties":{"cls":"stream"}},{"type":"Feature","geometry":{"type":"LineString","coordinates":[[10.60009,46.05987],[10.59839,46.05709],[10.59788,46.0564],[10.59753,46.05613],[10.59732,46.05576]]},"properties":{"cls":"stream"}},{"type":"Feature","geometry":{"type":"LineString","coordinates":[[10.53777,46.02107],[10.53719,46.02071],[10.53704,46.02078],[10.53683,46.02071]]},"properties":{"cls":"stream"}},{"type":"Feature","geometry":{"type":"LineString","coordinates":[[10.4777,46.04852],[10.4772,46.04793],[10.47702,46.04741],[10.47677,46.04718],[10.47632,46.04648],[10.47543,46.04581]]},"properties":{"cls":"stream"}},{"type":"Feature","geometry":{"type":"LineString","coordinates":[[10.54737,46.05767],[10.54712,46.05776]]},"properties":{"cls":"stream"}},{"type":"Feature","geometry":{"type":"LineString","coordinates":[[10.58438,46.00607],[10.58479,46.00639],[10.58517,46.0071],[10.58533,46.00723],[10.58634,46.00755],[10.58729,46.00766],[10.58749,46.00796],[10.58812,46.00842],[10.58848,46.00887],[10.58889,46.0091],[10.58946,46.01011],[10.59052,46.01028],[10.59167,46.01102],[10.5925,46.01098],[10.59311,46.01111],[10.59379,46.01113],[10.59487,46.0115],[10.59572,46.01166],[10.59593,46.01195],[10.59602,46.01239],[10.59662,46.0129],[10.59752,46.01343],[10.5986,46.0144],[10.60009,46.01517]]},"properties":{"cls":"stream","name":"Rio Cablone"}},{"type":"Feature","geometry":{"type":"LineString","coordinates":[[10.59385,46.06004],[10.59421,46.05977],[10.59446,46.05938],[10.59497,46.05913],[10.5953,46.05844],[10.596,46.0577],[10.59631,46.05712],[10.59608,46.05703],[10.59605,46.05682],[10.59628,46.05626],[10.59626,46.05598]]},"properties":{"cls":"stream"}},{"type":"Feature","geometry":{"type":"LineString","coordinates":[[10.49475,46.06408],[10.49492,46.06375],[10.49526,46.06342]]},"properties":{"cls":"stream"}},{"type":"Feature","geometry":{"type":"LineString","coordinates":[[10.47255,46.09289],[10.47393,46.09063]]},"properties":{"cls":"stream"}},{"type":"Feature","geometry":{"type":"LineString","coordinates":[[10.58892,46.06083],[10.58941,46.06055],[10.59056,46.06043],[10.59141,46.06005],[10.59142,46.05988],[10.59172,46.05938],[10.59267,46.05894],[10.59383,46.05794],[10.59411,46.05756],[10.59559,46.05667],[10.59597,46.05609]]},"properties":{"cls":"stream"}},{"type":"Feature","geometry":{"type":"LineString","coordinates":[[10.48446,46.09251],[10.48514,46.09221],[10.48554,46.09185],[10.48624,46.09155],[10.48734,46.09079],[10.48818,46.08987],[10.48911,46.08944],[10.48921,46.08885],[10.48962,46.08846],[10.48968,46.08811],[10.48955,46.08766],[10.48916,46.08712]]},"properties":{"cls":"stream"}},{"type":"Feature","geometry":{"type":"LineString","coordinates":[[10.59527,45.99655],[10.59585,45.9957],[10.59646,45.99546],[10.59698,45.99543],[10.59749,45.99522],[10.59789,45.99534],[10.59857,45.99505],[10.59887,45.99506],[10.59968,45.99478],[10.60009,45.99456]]},"properties":{"cls":"stream"}},{"type":"Feature","geometry":{"type":"LineString","coordinates":[[10.55143,46.07343],[10.5507,46.07388],[10.54941,46.07418],[10.549,46.07443],[10.54881,46.07465],[10.54894,46.07494],[10.54893,46.0755],[10.54778,46.07572],[10.54739,46.0759],[10.54696,46.07589]]},"properties":{"cls":"stream"}},{"type":"Feature","geometry":{"type":"LineString","coordinates":[[10.58554,46.09063],[10.58245,46.09014],[10.5809,46.09008],[10.5804,46.09019],[10.5799,46.09007],[10.57864,46.09022],[10.57843,46.09037],[10.57728,46.0906],[10.57639,46.09053],[10.5759,46.0907],[10.57496,46.09082]]},"properties":{"cls":"stream"}},{"type":"Feature","geometry":{"type":"LineString","coordinates":[[10.50758,46.07453],[10.50603,46.07514],[10.50406,46.07616],[10.50323,46.07664],[10.50228,46.07744],[10.50096,46.07812],[10.49959,46.07857],[10.49921,46.07888],[10.4973,46.07951]]},"properties":{"cls":"stream"}},{"type":"Feature","geometry":{"type":"LineString","coordinates":[[10.59432,46.08885],[10.5962,46.08952],[10.59884,46.08997],[10.60009,46.09035]]},"properties":{"cls":"stream"}},{"type":"Feature","geometry":{"type":"LineString","coordinates":[[10.47342,46.09423],[10.47424,46.09312],[10.47451,46.09188],[10.47514,46.09101],[10.47539,46.09003],[10.47556,46.08984]]},"properties":{"cls":"stream"}},{"type":"Feature","geometry":{"type":"LineString","coordinates":[[10.56704,46.00083],[10.56706,46.00064],[10.56746,46.0002],[10.56766,45.99969],[10.56766,45.99911]]},"properties":{"cls":"stream"}},{"type":"Feature","geometry":{"type":"LineString","coordinates":[[10.54637,46.06081],[10.54606,46.06054],[10.5461,46.06033]]},"properties":{"cls":"stream"}},{"type":"Feature","geometry":{"type":"LineString","coordinates":[[10.58321,46.00585],[10.58414,46.00686],[10.58469,46.00714],[10.58533,46.00723]]},"properties":{"cls":"stream"}},{"type":"Feature","geometry":{"type":"LineString","coordinates":[[10.53755,46.05082],[10.53749,46.05108],[10.53722,46.05128],[10.53661,46.05154],[10.53647,46.0523],[10.53583,46.05314],[10.53558,46.05368],[10.53502,46.05406],[10.53499,46.0542],[10.5343,46.05441],[10.53433,46.05465],[10.53375,46.05494],[10.53373,46.05524],[10.5334,46.05541],[10.53328,46.05578],[10.53304,46.05603],[10.5329,46.05682],[10.5326,46.05698],[10.5323,46.0576],[10.53185,46.05777],[10.53114,46.05826],[10.53057,46.05907],[10.53014,46.05947],[10.52952,46.05982]]},"properties":{"cls":"stream"}},{"type":"Feature","geometry":{"type":"LineString","coordinates":[[10.48836,46.07319],[10.48759,46.0739],[10.48681,46.07443],[10.48517,46.07497],[10.48218,46.0751],[10.48142,46.07498],[10.48063,46.075],[10.47792,46.07563],[10.47684,46.07605],[10.47636,46.07614]]},"properties":{"cls":"stream"}},{"type":"Feature","geometry":{"type":"LineString","coordinates":[[10.56923,46.07214],[10.56899,46.07253],[10.56867,46.07349],[10.56762,46.07452],[10.56644,46.07533],[10.56458,46.07591],[10.56408,46.07597]]},"properties":{"cls":"stream"}},{"type":"Feature","geometry":{"type":"LineString","coordinates":[[10.51498,46.01741],[10.51349,46.01699]]},"properties":{"cls":"stream"}},{"type":"Feature","geometry":{"type":"LineString","coordinates":[[10.51946,46.05367],[10.51942,46.05337]]},"properties":{"cls":"canal","name":"scarico allegerimento"}},{"type":"Feature","geometry":{"type":"LineString","coordinates":[[10.56809,46.06995],[10.56763,46.07057],[10.56736,46.07124],[10.56686,46.072],[10.56658,46.07218],[10.56591,46.07223],[10.56565,46.07239],[10.56519,46.07327],[10.565,46.07412],[10.56453,46.07448],[10.564,46.07619],[10.56345,46.07702],[10.56192,46.07823],[10.56029,46.07977],[10.55973,46.07996],[10.55687,46.08007],[10.55469,46.08055],[10.55411,46.08079],[10.55397,46.08072],[10.55402,46.08047],[10.55385,46.08035],[10.55374,46.0805],[10.55342,46.08029]]},"properties":{"cls":"stream"}},{"type":"Feature","geometry":{"type":"LineString","coordinates":[[10.54587,46.07444],[10.54572,46.07368],[10.54528,46.07355]]},"properties":{"cls":"stream","name":"Fiume Chiese"}},{"type":"Feature","geometry":{"type":"LineString","coordinates":[[10.4856,46.09351],[10.48682,46.09263],[10.48901,46.09141],[10.48944,46.09052],[10.48951,46.09008],[10.48946,46.08977],[10.48911,46.08944]]},"properties":{"cls":"stream"}},{"type":"Feature","geometry":{"type":"LineString","coordinates":[[10.48395,46.03307],[10.4837,46.03331],[10.48298,46.03355],[10.48271,46.03375],[10.48252,46.03409],[10.48128,46.03514],[10.48082,46.03632],[10.48033,46.0372]]},"properties":{"cls":"stream"}},{"type":"Feature","geometry":{"type":"LineString","coordinates":[[10.4705,46.04898],[10.46997,46.0484]]},"properties":{"cls":"stream"}},{"type":"Feature","geometry":{"type":"LineString","coordinates":[[10.52138,46.0305],[10.52092,46.0304],[10.52036,46.03006]]},"properties":{"cls":"stream"}},{"type":"Feature","geometry":{"type":"LineString","coordinates":[[10.57496,46.09082],[10.57306,46.0911],[10.57253,46.09146],[10.57217,46.09157],[10.57162,46.09157],[10.57149,46.09169],[10.57032,46.09186],[10.56956,46.09187],[10.56903,46.09225],[10.56773,46.09251],[10.56752,46.09268],[10.56721,46.09273],[10.56696,46.09296],[10.56654,46.09285],[10.56604,46.09286],[10.56592,46.09273]]},"properties":{"cls":"stream"}},{"type":"Feature","geometry":{"type":"LineString","coordinates":[[10.58298,46.08321],[10.58045,46.08277],[10.57941,46.08245],[10.57887,46.08244],[10.57851,46.0826],[10.57636,46.08202],[10.57437,46.08197],[10.57305,46.08228],[10.57275,46.08226],[10.57232,46.08242],[10.57066,46.08264],[10.5701,46.08297],[10.5697,46.08335],[10.56758,46.0843],[10.56639,46.08497],[10.56597,46.08506],[10.56524,46.08498],[10.56489,46.08512],[10.5645,46.08549],[10.56396,46.08575],[10.56369,46.08609],[10.56318,46.0863],[10.56205,46.08605]]},"properties":{"cls":"stream"}},{"type":"Feature","geometry":{"type":"LineString","coordinates":[[10.52129,46.02281],[10.52016,46.02299],[10.518,46.02312],[10.51418,46.02374],[10.51322,46.02368]]},"properties":{"cls":"stream"}},{"type":"Feature","geometry":{"type":"LineString","coordinates":[[10.50862,46.06535],[10.50895,46.06524],[10.50937,46.06488],[10.50971,46.06403],[10.50966,46.06373],[10.50933,46.06337],[10.50867,46.06292],[10.50858,46.06252],[10.50819,46.06186],[10.50816,46.0611],[10.50785,46.06066],[10.50785,46.06052],[10.5083,46.05959],[10.50919,46.05913]]},"properties":{"cls":"stream"}},{"type":"Feature","geometry":{"type":"LineString","coordinates":[[10.48151,46.09587],[10.48162,46.0953],[10.48216,46.09477],[10.48231,46.09448],[10.48287,46.09292],[10.48304,46.09234],[10.48298,46.09157],[10.48305,46.09136],[10.48352,46.09093],[10.48388,46.09036],[10.48584,46.08918],[10.48612,46.08887],[10.48627,46.08847],[10.4869,46.08779],[10.4873,46.08716],[10.48795,46.08669],[10.48828,46.08612],[10.48844,46.08539],[10.48773,46.08413],[10.48734,46.08374],[10.48632,46.08316]]},"properties":{"cls":"stream"}},{"type":"Feature","geometry":{"type":"LineString","coordinates":[[10.51371,46.05801],[10.51459,46.05794]]},"properties":{"cls":"stream"}},{"type":"Feature","geometry":{"type":"LineString","coordinates":[[10.49325,46.07057],[10.49004,46.07088],[10.48892,46.07127],[10.48801,46.07125],[10.4876,46.07138],[10.48563,46.07156],[10.48138,46.07287],[10.47998,46.07319],[10.47875,46.07326],[10.47704,46.07305],[10.47596,46.07307],[10.47453,46.07355],[10.47299,46.07384]]},"properties":{"cls":"stream"}},{"type":"Feature","geometry":{"type":"LineString","coordinates":[[10.52252,46.03988],[10.52155,46.03962],[10.51942,46.03979],[10.51847,46.03978],[10.51786,46.03966],[10.51463,46.03939],[10.51284,46.039]]},"properties":{"cls":"stream"}},{"type":"Feature","geometry":{"type":"LineString","coordinates":[[10.48767,46.09591],[10.48861,46.09552],[10.48908,46.09514],[10.48915,46.09489],[10.48908,46.09394],[10.48927,46.09368],[10.49243,46.09184],[10.49273,46.09154],[10.49274,46.09138],[10.49166,46.08988],[10.49101,46.08857],[10.49065,46.08837],[10.49053,46.08818],[10.49048,46.08719],[10.48997,46.08632],[10.48957,46.08532],[10.4892,46.0849],[10.48772,46.08376],[10.48734,46.08374]]},"properties":{"cls":"stream"}},{"type":"Feature","geometry":{"type":"LineString","coordinates":[[10.51409,46.03257],[10.51436,46.03237],[10.51444,46.03205],[10.51431,46.03173],[10.51394,46.03151],[10.51389,46.03131],[10.51447,46.03063],[10.51458,46.0301],[10.51435,46.02985],[10.51301,46.02925],[10.51263,46.02888],[10.51275,46.02853],[10.51302,46.02825],[10.51324,46.02748],[10.51324,46.02667],[10.51311,46.02622],[10.51343,46.02542],[10.5133,46.02501],[10.51301,46.02468],[10.51306,46.02424],[10.51324,46.02394],[10.51321,46.0236],[10.51282,46.02282],[10.51283,46.02248],[10.51302,46.0219],[10.51328,46.02151],[10.51315,46.02098],[10.51258,46.01983],[10.51262,46.01962],[10.51247,46.01909],[10.51259,46.01882],[10.51221,46.01777],[10.51318,46.01686],[10.51276,46.01598],[10.51192,46.0156],[10.51182,46.01542],[10.512,46.01516],[10.51232,46.01505],[10.51237,46.01449],[10.51262,46.01438],[10.51281,46.01394],[10.51256,46.01326],[10.51223,46.01282],[10.51217,46.01253],[10.51231,46.01228],[10.51223,46.01188],[10.51258,46.01154],[10.51261,46.01139],[10.5123,46.01083],[10.51237,46.0107],[10.51317,46.01031],[10.51416,46.00859],[10.51489,46.00506]]},"properties":{"cls":"river","name":"Fiume Chiese"}},{"type":"Feature","geometry":{"type":"LineString","coordinates":[[10.55961,46.00163],[10.55987,46.00106],[10.56027,46.00077],[10.56251,45.99986],[10.56366,45.99961],[10.56476,45.99972],[10.56553,45.99948],[10.5667,45.99888],[10.56723,45.99894],[10.56759,45.99912],[10.56787,45.9991],[10.5682,45.9987],[10.56862,45.99857],[10.56881,45.99833],[10.56885,45.99811],[10.56974,45.99723],[10.56996,45.99721],[10.56995,45.99647],[10.56974,45.99615],[10.56983,45.99567],[10.57054,45.99474],[10.5706,45.99454],[10.57047,45.99427],[10.57063,45.99367],[10.57042,45.993],[10.56863,45.99078],[10.56883,45.98994],[10.56847,45.989],[10.56795,45.98863],[10.56748,45.98849],[10.56687,45.98858],[10.56633,45.98854],[10.56588,45.98826],[10.56226,45.98492]]},"properties":{"cls":"stream"}},{"type":"Feature","geometry":{"type":"LineString","coordinates":[[10.48088,46.00462],[10.48132,46.0038],[10.48427,46.00173],[10.48462,46.00094],[10.48496,46.0005],[10.48566,45.99999],[10.48692,45.99869],[10.48919,45.99782],[10.49011,45.99722]]},"properties":{"cls":"stream"}},{"type":"Feature","geometry":{"type":"LineString","coordinates":[[10.48309,46.08923],[10.48535,46.08774],[10.48589,46.08676],[10.48608,46.08577],[10.48566,46.08509],[10.48628,46.08389],[10.48632,46.08316],[10.4861,46.08286]]},"properties":{"cls":"stream"}},{"type":"Feature","geometry":{"type":"LineString","coordinates":[[10.4875,46.07054],[10.4862,46.07113],[10.48523,46.0713],[10.48468,46.07164],[10.48346,46.07207],[10.48303,46.07233]]},"properties":{"cls":"stream"}},{"type":"Feature","geometry":{"type":"LineString","coordinates":[[10.4743,46.09565],[10.47536,46.09472],[10.47563,46.09428],[10.47569,46.09402],[10.47575,46.0929],[10.47605,46.09195],[10.4759,46.09102],[10.47562,46.09037],[10.47549,46.08937]]},"properties":{"cls":"stream"}},{"type":"Feature","geometry":{"type":"LineString","coordinates":[[10.59006,46.05768],[10.59085,46.05733],[10.59121,46.05705],[10.59243,46.0568],[10.59271,46.05662],[10.59428,46.0561],[10.59574,46.05602],[10.59597,46.05609],[10.59645,46.05591],[10.5965,46.05571],[10.5964,46.05548],[10.5965,46.05499],[10.59714,46.05484],[10.59769,46.05429],[10.59821,46.05412],[10.59859,46.05412],[10.59864,46.05402],[10.5983,46.05385],[10.59827,46.05373],[10.59845,46.05346],[10.60009,46.05334]]},"properties":{"cls":"stream","name":"Torrente Arnò"}},{"type":"Feature","geometry":{"type":"LineString","coordinates":[[10.58746,46.02427],[10.58832,46.02444],[10.58852,46.02467],[10.58908,46.02496],[10.58954,46.02509],[10.5903,46.02514],[10.59241,46.0251],[10.59295,46.02475],[10.59415,46.02441],[10.5956,46.02449],[10.59589,46.02463],[10.59631,46.02508],[10.59814,46.0247]]},"properties":{"cls":"stream"}},{"type":"Feature","geometry":{"type":"MultiLineString","coordinates":[[[10.52314,45.98492],[10.52416,45.98553],[10.52531,45.98577],[10.52711,45.98492]],[[10.53091,45.98492],[10.53227,45.98588],[10.53306,45.98604],[10.53324,45.98621],[10.53392,45.9864]]]},"properties":{"cls":"stream"}},{"type":"Feature","geometry":{"type":"LineString","coordinates":[[10.54699,46.07623],[10.54696,46.07589],[10.54675,46.07574]]},"properties":{"cls":"stream","name":"Fiume Chiese"}},{"type":"Feature","geometry":{"type":"LineString","coordinates":[[10.51262,46.03852],[10.51262,46.03829],[10.5131,46.03726],[10.5131,46.03694],[10.51381,46.03627],[10.5137,46.03594],[10.51342,46.03565],[10.51299,46.03549],[10.51281,46.03557],[10.51267,46.03552],[10.51345,46.03412],[10.51373,46.03387],[10.5138,46.03304],[10.51409,46.03257]]},"properties":{"cls":"river","name":"Fiume Chiese"}},{"type":"Feature","geometry":{"type":"LineString","coordinates":[[10.49224,46.04684],[10.49245,46.04662],[10.49252,46.04634],[10.49344,46.04567],[10.49404,46.04538],[10.49418,46.04508],[10.49405,46.04487],[10.49443,46.04453],[10.49464,46.04441],[10.49475,46.04449],[10.49494,46.04433],[10.49494,46.04396],[10.49517,46.04366],[10.49594,46.04336],[10.4963,46.04312]]},"properties":{"cls":"stream"}},{"type":"Feature","geometry":{"type":"LineString","coordinates":[[10.51349,46.01699],[10.5134,46.01694]]},"properties":{"cls":"stream"}},{"type":"Feature","geometry":{"type":"LineString","coordinates":[[10.59465,45.99629],[10.59492,45.99596],[10.59567,45.99554],[10.59578,45.99526],[10.59606,45.99498],[10.5969,45.99469],[10.59781,45.99456],[10.59926,45.99396],[10.60009,45.99378]]},"properties":{"cls":"stream"}},{"type":"Feature","geometry":{"type":"LineString","coordinates":[[10.49668,46.05035],[10.49487,46.04879],[10.4944,46.04861],[10.49363,46.04805],[10.49286,46.04729],[10.49283,46.04677],[10.49264,46.04626]]},"properties":{"cls":"stream"}},{"type":"Feature","geometry":{"type":"LineString","coordinates":[[10.51419,46.05371],[10.5144,46.05361]]},"properties":{"cls":"canal"}},{"type":"Feature","geometry":{"type":"LineString","coordinates":[[10.51489,46.00506],[10.51589,46.00328],[10.5175,46.00146],[10.51864,45.99925],[10.52085,45.99721],[10.52221,45.99697],[10.52293,45.99693]]},"properties":{"cls":"river","name":"Fiume Chiese"}},{"type":"Feature","geometry":{"type":"LineString","coordinates":[[10.46997,46.08741],[10.47063,46.08691],[10.47142,46.0861],[10.47204,46.08573],[10.47236,46.0853],[10.47401,46.08408],[10.47474,46.08309],[10.47663,46.08145],[10.47732,46.08104],[10.47775,46.08058]]},"properties":{"cls":"stream"}},{"type":"Feature","geometry":{"type":"LineString","coordinates":[[10.47995,46.0423],[10.47919,46.04198],[10.47807,46.04123],[10.47612,46.04048],[10.47504,46.03981],[10.47451,46.03973]]},"properties":{"cls":"stream"}},{"type":"Feature","geometry":{"type":"LineString","coordinates":[[10.47979,46.09315],[10.48014,46.09261],[10.48073,46.0921],[10.4817,46.09102],[10.48244,46.09051],[10.48256,46.0903],[10.48261,46.08962],[10.48309,46.08923]]},"properties":{"cls":"stream"}},{"type":"Feature","geometry":{"type":"LineString","coordinates":[[10.53204,45.98786],[10.53238,45.98715],[10.53329,45.98641],[10.53362,45.98632]]},"properties":{"cls":"stream"}},{"type":"Feature","geometry":{"type":"LineString","coordinates":[[10.47586,45.98492],[10.47579,45.98518],[10.47597,45.98544],[10.47581,45.98591],[10.47606,45.98616],[10.47617,45.98648],[10.47604,45.98702],[10.47612,45.98744],[10.47593,45.98772],[10.47577,45.98832]]},"properties":{"cls":"stream"}},{"type":"Feature","geometry":{"type":"LineString","coordinates":[[10.51939,46.05328],[10.51917,46.05286],[10.51835,46.05195]]},"properties":{"cls":"stream"}},{"type":"Feature","geometry":{"type":"LineString","coordinates":[[10.52305,45.99694],[10.52365,45.99687],[10.52474,45.99633],[10.52575,45.99394],[10.5262,45.99344],[10.527,45.99294],[10.52718,45.99265],[10.52721,45.99236],[10.52802,45.99148],[10.52794,45.99094],[10.52823,45.99053],[10.52828,45.99026],[10.52881,45.98991],[10.52905,45.98947],[10.53,45.98888],[10.53069,45.98884],[10.53068,45.98875],[10.53223,45.98775],[10.53353,45.98678],[10.53448,45.98586],[10.53468,45.98542],[10.53516,45.98492]]},"properties":{"cls":"river","name":"Fiume Chiese"}},{"type":"Feature","geometry":{"type":"LineString","coordinates":[[10.47279,46.05023],[10.47232,46.04983],[10.47225,46.0493],[10.47161,46.04816],[10.47145,46.04745],[10.47038,46.04597],[10.46997,46.04559]]},"properties":{"cls":"stream"}},{"type":"Feature","geometry":{"type":"LineString","coordinates":[[10.56653,46.05451],[10.56497,46.05519],[10.56449,46.05527],[10.56371,46.05556],[10.56091,46.05569]]},"properties":{"cls":"stream"}},{"type":"Feature","geometry":{"type":"LineString","coordinates":[[10.51086,46.0092],[10.51339,46.00921]]},"properties":{"cls":"canal"}},{"type":"Feature","geometry":{"type":"LineString","coordinates":[[10.50537,46.09479],[10.50547,46.09456],[10.5054,46.0944],[10.50513,46.09428],[10.50486,46.09437]]},"properties":{"cls":"stream"}},{"type":"Feature","geometry":{"type":"LineString","coordinates":[[10.55322,46.08148],[10.55294,46.08146],[10.55282,46.08118],[10.55297,46.0811]]},"properties":{"cls":"stream","name":"Fiume Chiese"}},{"type":"Feature","geometry":{"type":"LineString","coordinates":[[10.51373,46.04712],[10.5138,46.04605],[10.51397,46.04586],[10.51475,46.04543]]},"properties":{"cls":"stream","name":"Fiume Chiese"}},{"type":"Feature","geometry":{"type":"LineString","coordinates":[[10.47887,46.03833],[10.47803,46.03895],[10.47635,46.03914],[10.47546,46.03958],[10.47451,46.03973],[10.47414,46.04004],[10.47287,46.04072],[10.47227,46.04085],[10.47121,46.04082],[10.47046,46.04113],[10.46997,46.04116]]},"properties":{"cls":"stream","name":"Torrente Val Ghilarda"}},{"type":"Feature","geometry":{"type":"LineString","coordinates":[[10.51436,45.99328],[10.51572,45.99399],[10.51678,45.99408],[10.51759,45.99433],[10.51815,45.9947],[10.51842,45.99508],[10.51919,45.99531],[10.51951,45.99554],[10.51967,45.99572],[10.51922,45.99632],[10.51912,45.99677],[10.51941,45.99854]]},"properties":{"cls":"stream"}},{"type":"Feature","geometry":{"type":"LineString","coordinates":[[10.52199,45.99529],[10.52376,45.98492]]},"properties":{"cls":"canal"}},{"type":"Feature","geometry":{"type":"LineString","coordinates":[[10.48315,46.03919],[10.48298,46.03899],[10.48228,46.03871],[10.48125,46.03807],[10.48058,46.03789],[10.47925,46.03792]]},"properties":{"cls":"stream"}},{"type":"Feature","geometry":{"type":"LineString","coordinates":[[10.47947,45.99963],[10.47995,45.99909],[10.48092,45.99863],[10.48173,45.99756],[10.48353,45.99732],[10.48437,45.99687],[10.48493,45.99669],[10.48515,45.99645],[10.4863,45.9959]]},"properties":{"cls":"stream"}},{"type":"Feature","geometry":{"type":"LineString","coordinates":[[10.52236,45.98492],[10.52353,45.98554],[10.52384,45.98564],[10.52416,45.98553]]},"properties":{"cls":"stream"}},{"type":"Feature","geometry":{"type":"LineString","coordinates":[[10.59322,46.05557],[10.59443,46.05518],[10.59547,46.05498]]},"properties":{"cls":"stream"}},{"type":"Feature","geometry":{"type":"LineString","coordinates":[[10.56387,46.05331],[10.56375,46.05363],[10.56353,46.05387],[10.56221,46.05477],[10.56167,46.05529],[10.56091,46.05569],[10.55816,46.05558],[10.55654,46.0551],[10.55392,46.0553],[10.55343,46.05521],[10.55267,46.05483],[10.55254,46.05506],[10.55213,46.05523],[10.5518,46.05509],[10.55146,46.05512],[10.55099,46.05521],[10.55064,46.05545],[10.5495,46.05573],[10.54872,46.05573],[10.54816,46.0556],[10.54773,46.05575],[10.54759,46.05586],[10.54764,46.056],[10.54752,46.05638],[10.54736,46.05655],[10.54716,46.05656],[10.547,46.05669],[10.54704,46.05678],[10.54739,46.05678],[10.54728,46.05689],[10.54696,46.05693],[10.54715,46.0571],[10.54707,46.05721],[10.54721,46.05738],[10.54702,46.05757],[10.54676,46.05766],[10.54685,46.05774],[10.54704,46.05769],[10.54713,46.05787],[10.5467,46.05798],[10.54618,46.0586],[10.54578,46.05875],[10.54607,46.05882],[10.54575,46.05901],[10.54585,46.05932],[10.54574,46.0595],[10.54584,46.05973],[10.54578,46.05984],[10.54606,46.05995],[10.54625,46.06029],[10.54606,46.06033],[10.54572,46.0601],[10.54514,46.0602],[10.54507,46.06066],[10.54517,46.06093],[10.54451,46.06137],[10.54382,46.0616],[10.54383,46.06202],[10.54342,46.06317],[10.54341,46.0634],[10.54326,46.06359],[10.54305,46.06368],[10.54298,46.06382],[10.54214,46.06419],[10.54186,46.06445],[10.54147,46.06529],[10.54063,46.06585],[10.54053,46.06611],[10.54032,46.06626],[10.53995,46.06645],[10.53952,46.06651],[10.53936,46.06671],[10.53858,46.06681],[10.5384,46.06699]]},"properties":{"cls":"stream"}},{"type":"Feature","geometry":{"type":"LineString","coordinates":[[10.49517,46.07043],[10.49522,46.07092],[10.49489,46.07171],[10.49513,46.07225],[10.49495,46.07307],[10.49441,46.07446],[10.49346,46.07548],[10.49334,46.07572],[10.49344,46.07615],[10.49425,46.07717],[10.49404,46.07767],[10.49406,46.07809],[10.4935,46.07901],[10.49337,46.07967],[10.49316,46.08015],[10.49221,46.08093],[10.49193,46.08142]]},"properties":{"cls":"stream"}},{"type":"Feature","geometry":{"type":"LineString","coordinates":[[10.59662,46.00268],[10.59668,46.0035],[10.59649,46.00387],[10.59636,46.00443],[10.59599,46.00499],[10.59596,46.00626],[10.59581,46.00712],[10.59585,46.00846],[10.5957,46.00906],[10.59525,46.01015],[10.59535,46.01157]]},"properties":{"cls":"stream"}},{"type":"Feature","geometry":{"type":"LineString","coordinates":[[10.47979,46.06443],[10.47893,46.0653],[10.47815,46.06569],[10.4769,46.06719],[10.47591,46.06746],[10.4756,46.06765],[10.47531,46.06803],[10.47503,46.06811]]},"properties":{"cls":"stream"}},{"type":"Feature","geometry":{"type":"LineString","coordinates":[[10.47274,46.03576],[10.47189,46.0364],[10.47084,46.03688],[10.47042,46.03722],[10.47016,46.03756],[10.46997,46.03805]]},"properties":{"cls":"stream"}},{"type":"Feature","geometry":{"type":"LineString","coordinates":[[10.47914,46.09244],[10.47916,46.09208],[10.47936,46.09161],[10.47995,46.09092],[10.48204,46.08949],[10.48259,46.08928],[10.48309,46.08923]]},"properties":{"cls":"stream"}},{"type":"Feature","geometry":{"type":"LineString","coordinates":[[10.47883,46.06252],[10.47792,46.06293],[10.47702,46.06385],[10.47604,46.06461],[10.47591,46.06502],[10.47594,46.06643]]},"properties":{"cls":"stream"}},{"type":"Feature","geometry":{"type":"LineString","coordinates":[[10.49057,46.09503],[10.49067,46.0947],[10.49088,46.09446],[10.49188,46.0939],[10.49286,46.09288],[10.49326,46.09188],[10.49327,46.09139],[10.49274,46.09085],[10.49197,46.09036]]},"properties":{"cls":"stream"}},{"type":"Feature","geometry":{"type":"LineString","coordinates":[[10.4861,46.08286],[10.48608,46.08277]]},"properties":{"cls":"stream"}},{"type":"Feature","geometry":{"type":"LineString","coordinates":[[10.51225,46.0367],[10.51283,46.03661],[10.51284,46.03636],[10.51318,46.0363],[10.51268,46.03564],[10.51269,46.03554]]},"properties":{"cls":"stream"}},{"type":"Feature","geometry":{"type":"LineString","coordinates":[[10.57695,46.09704],[10.5758,46.09681],[10.57351,46.09661],[10.57285,46.09642],[10.57077,46.0966],[10.56954,46.09661],[10.56874,46.09704]]},"properties":{"cls":"stream"}},{"type":"Feature","geometry":{"type":"LineString","coordinates":[[10.47759,45.98955],[10.47785,45.98963],[10.47808,45.99021],[10.47854,45.99052],[10.48001,45.9912],[10.48097,45.99153],[10.48311,45.99271],[10.48411,45.99448],[10.48437,45.99465],[10.48524,45.99475],[10.48573,45.99561],[10.4863,45.9959],[10.4872,45.99592],[10.48744,45.99606],[10.48806,45.99618],[10.48872,45.99708],[10.48973,45.99713],[10.49027,45.99726],[10.491,45.9977],[10.492,45.99799],[10.49221,45.99818],[10.4922,45.99848],[10.49238,45.99873],[10.49275,45.99881],[10.49381,45.99872],[10.49482,45.99898],[10.49605,45.99891],[10.49914,45.99949],[10.49992,45.99988],[10.50084,46.00019],[10.5015,46.00029],[10.50176,46.00044],[10.50192,46.00079],[10.50237,46.0012],[10.50307,46.00121],[10.50475,46.00189],[10.50555,46.00207],[10.50596,46.00238],[10.50627,46.00276],[10.50719,46.0031],[10.50827,46.00304],[10.50922,46.00332],[10.50972,46.00316],[10.5111,46.00337],[10.51164,46.00333]]},"properties":{"cls":"stream","name":"Rondon"}},{"type":"Feature","geometry":{"type":"LineString","coordinates":[[10.55458,46.05008],[10.55485,46.05179],[10.55463,46.05284],[10.55392,46.05417],[10.55305,46.05471],[10.55267,46.05483]]},"properties":{"cls":"stream"}},{"type":"Feature","geometry":{"type":"LineString","coordinates":[[10.55137,46.07817],[10.55124,46.07777],[10.55081,46.07739],[10.55043,46.07746]]},"properties":{"cls":"stream"}},{"type":"Feature","geometry":{"type":"LineString","coordinates":[[10.47769,46.05011],[10.47725,46.04942],[10.47545,46.04762],[10.47537,46.04712],[10.47543,46.04581],[10.47515,46.04511],[10.47477,46.04474],[10.47434,46.04452]]},"properties":{"cls":"stream"}},{"type":"Feature","geometry":{"type":"LineString","coordinates":[[10.5158,46.05456],[10.51483,46.05424],[10.51282,46.05248]]},"properties":{"cls":"canal","name":"Galleria di derivazione in pressione"}},{"type":"Feature","geometry":{"type":"LineString","coordinates":[[10.5144,46.05361],[10.51601,46.05292]]},"properties":{"cls":"canal"}},{"type":"Feature","geometry":{"type":"LineString","coordinates":[[10.52216,46.05338],[10.52143,46.05354]]},"properties":{"cls":"canal","name":"Derivazione sussidiaria dal Torrente Danerba"}},{"type":"Feature","geometry":{"type":"LineString","coordinates":[[10.50093,46.01815],[10.50319,46.01817],[10.50473,46.01787],[10.50613,46.01785],[10.5101,46.01648],[10.511,46.01569],[10.51183,46.01535]]},"properties":{"cls":"stream"}},{"type":"Feature","geometry":{"type":"LineString","coordinates":[[10.50643,45.9896],[10.50718,45.99002],[10.50756,45.99008],[10.50905,45.99002],[10.51433,45.99024],[10.5173,45.99093],[10.51911,45.99119],[10.52057,45.99171],[10.52096,45.99195],[10.52158,45.99212],[10.52341,45.99295],[10.52406,45.99345],[10.52519,45.99408],[10.5257,45.99405]]},"properties":{"cls":"stream"}},{"type":"Feature","geometry":{"type":"LineString","coordinates":[[10.46997,46.02814],[10.47037,46.02833],[10.47108,46.02886],[10.47128,46.02911],[10.47198,46.02953],[10.47294,46.03039],[10.47483,46.0318],[10.47549,46.03257],[10.47623,46.03307],[10.4773,46.03419],[10.47827,46.03494],[10.47864,46.03553],[10.47952,46.03628],[10.47962,46.03641],[10.47962,46.03677],[10.47941,46.03704],[10.47898,46.03726],[10.47882,46.03757],[10.47887,46.03833]]},"properties":{"cls":"stream","name":"Torrente Val Ghilarda"}},{"type":"Feature","geometry":{"type":"LineString","coordinates":[[10.52098,46.05325],[10.52083,46.05298],[10.52046,46.05263],[10.51913,46.05191],[10.51878,46.05183],[10.51835,46.05195],[10.51801,46.05155],[10.51787,46.0511],[10.51758,46.05086],[10.51692,46.05055],[10.51608,46.05052],[10.51575,46.05036],[10.51569,46.05021]]},"properties":{"cls":"stream","name":"Fiume Chiese"}},{"type":"Feature","geometry":{"type":"LineString","coordinates":[[10.47165,45.98923],[10.47245,45.98923],[10.47397,45.98896],[10.47449,45.98904],[10.47522,45.98898],[10.47553,45.98898],[10.47675,45.98935],[10.47723,45.98937]]},"properties":{"cls":"stream"}},{"type":"Feature","geometry":{"type":"LineString","coordinates":[[10.50502,46.07306],[10.50491,46.07341],[10.50221,46.07609],[10.50165,46.07694],[10.50091,46.07749],[10.50033,46.0778],[10.49889,46.07829],[10.49809,46.07882],[10.4973,46.07951],[10.49664,46.07981],[10.49509,46.08034],[10.49401,46.08082],[10.49271,46.08097],[10.49092,46.08198]]},"properties":{"cls":"stream"}},{"type":"Feature","geometry":{"type":"LineString","coordinates":[[10.55183,46.02956],[10.55152,46.02941],[10.55118,46.02905],[10.55129,46.02871],[10.55013,46.02809],[10.54879,46.02686],[10.54772,46.02621],[10.54643,46.02525],[10.54272,46.02408],[10.54242,46.02371],[10.53995,46.02265],[10.5392,46.02195],[10.53857,46.02155],[10.53832,46.02117],[10.53783,46.0211],[10.53771,46.02089],[10.53727,46.02053],[10.53631,46.02043],[10.53478,46.01964],[10.53417,46.0196],[10.53349,46.0189],[10.53195,46.01802],[10.53176,46.01752],[10.53161,46.0174],[10.53104,46.01721],[10.53016,46.01715],[10.52985,46.01697],[10.52912,46.01689],[10.52732,46.01602],[10.52701,46.01582],[10.52689,46.0156],[10.52531,46.01521],[10.52443,46.01479],[10.52407,46.0148],[10.52357,46.01443],[10.52256,46.01409],[10.52175,46.0136],[10.52142,46.01351],[10.52088,46.0132],[10.52019,46.01206],[10.51998,46.0119],[10.51946,46.01164],[10.51762,46.01117],[10.51681,46.01071],[10.51587,46.01048],[10.51537,46.01015],[10.51502,46.00971],[10.51487,46.00916],[10.5142,46.0084]]},"properties":{"cls":"stream","name":"Torrente Danerba"}},{"type":"Feature","geometry":{"type":"LineString","coordinates":[[10.47208,45.98877],[10.47334,45.98852],[10.47577,45.98832],[10.4764,45.98859],[10.47702,45.98926],[10.47752,45.98943],[10.47759,45.98955]]},"properties":{"cls":"stream","name":"Rondon"}},{"type":"Feature","geometry":{"type":"LineString","coordinates":[[10.48018,46.09541],[10.48081,46.09443],[10.48205,46.09366],[10.48268,46.09336]]},"properties":{"cls":"stream"}},{"type":"Feature","geometry":{"type":"LineString","coordinates":[[10.54637,46.05336],[10.54665,46.05493],[10.54722,46.05559],[10.54764,46.05582]]},"properties":{"cls":"stream"}},{"type":"Feature","geometry":{"type":"LineString","coordinates":[[10.52418,45.99568],[10.52512,45.99549]]},"properties":{"cls":"stream"}},{"type":"Feature","geometry":{"type":"LineString","coordinates":[[10.5992,46.02454],[10.60009,46.02354]]},"properties":{"cls":"stream"}},{"type":"Feature","geometry":{"type":"LineString","coordinates":[[10.56216,46.08666],[10.56201,46.08663],[10.56189,46.08646],[10.56186,46.08622],[10.56173,46.08613],[10.56153,46.08569],[10.56156,46.08561],[10.56189,46.08559]]},"properties":{"cls":"stream","name":"Fiume Chiese"}},{"type":"Feature","geometry":{"type":"LineString","coordinates":[[10.56627,46.08904],[10.56606,46.08893],[10.56594,46.08898],[10.56602,46.08889],[10.56583,46.08879],[10.56588,46.08863],[10.5658,46.08851],[10.56568,46.08849],[10.56546,46.08804],[10.56514,46.08781]]},"properties":{"cls":"stream"}},{"type":"Feature","geometry":{"type":"LineString","coordinates":[[10.50846,46.04953],[10.50843,46.04928]]},"properties":{"cls":"stream"}},{"type":"Feature","geometry":{"type":"LineString","coordinates":[[10.47549,46.08937],[10.47552,46.08912],[10.47571,46.08886],[10.47689,46.088],[10.47767,46.08767],[10.47921,46.08662],[10.48148,46.08536],[10.48217,46.08507],[10.48353,46.08407],[10.48424,46.08332],[10.48452,46.08232]]},"properties":{"cls":"stream"}},{"type":"Feature","geometry":{"type":"LineString","coordinates":[[10.48452,46.08232],[10.48459,46.08216]]},"properties":{"cls":"stream"}},{"type":"Feature","geometry":{"type":"LineString","coordinates":[[10.52731,46.09698],[10.52727,46.09704]]},"properties":{"cls":"stream"}},{"type":"Feature","geometry":{"type":"LineString","coordinates":[[10.51164,46.00333],[10.51489,46.00506]]},"properties":{"cls":"stream"}},{"type":"Feature","geometry":{"type":"LineString","coordinates":[[10.53299,46.05628],[10.53255,46.05654],[10.53212,46.05665],[10.5321,46.05689],[10.53116,46.05775],[10.53109,46.05798],[10.53114,46.05826]]},"properties":{"cls":"stream"}},{"type":"Feature","geometry":{"type":"LineString","coordinates":[[10.49781,46.01872],[10.50093,46.01815]]},"properties":{"cls":"stream"}},{"type":"Feature","geometry":{"type":"LineString","coordinates":[[10.48701,46.04863],[10.48784,46.04855],[10.48813,46.04877]]},"properties":{"cls":"stream"}},{"type":"Feature","geometry":{"type":"LineString","coordinates":[[10.5659,46.09704],[10.56576,46.09689],[10.56511,46.09668],[10.56534,46.09647],[10.56564,46.09589],[10.56554,46.09573],[10.56491,46.0953],[10.56486,46.09512],[10.56493,46.09476],[10.56521,46.09427],[10.5652,46.09356],[10.56564,46.09294],[10.56592,46.09273]]},"properties":{"cls":"river","name":"Fiume Chiese"}},{"type":"Feature","geometry":{"type":"LineString","coordinates":[[10.49997,46.04049],[10.50244,46.04043],[10.50426,46.04088],[10.50493,46.04116],[10.50537,46.04108],[10.5064,46.04151],[10.50692,46.04151],[10.50769,46.04108],[10.50802,46.0407],[10.50836,46.04051],[10.51101,46.03973],[10.51187,46.03877],[10.51262,46.03852]]},"properties":{"cls":"stream"}},{"type":"Feature","geometry":{"type":"LineString","coordinates":[[10.47132,46.09207],[10.47312,46.09117],[10.47393,46.09063],[10.47481,46.08977],[10.47549,46.08937]]},"properties":{"cls":"stream"}},{"type":"Feature","geometry":{"type":"LineString","coordinates":[[10.4776,46.03139],[10.4782,46.03207],[10.47902,46.03269],[10.48005,46.03321],[10.48047,46.03369],[10.48062,46.03434],[10.48059,46.03457],[10.48035,46.03502],[10.47983,46.0356],[10.47981,46.03574],[10.48034,46.03729],[10.48011,46.03766],[10.47959,46.03775],[10.47925,46.03792]]},"properties":{"cls":"stream"}},{"type":"Feature","geometry":{"type":"LineString","coordinates":[[10.51569,46.05021],[10.51563,46.04976],[10.51579,46.04926],[10.51407,46.04832],[10.51392,46.04798],[10.5138,46.04733],[10.51369,46.0472],[10.5138,46.04706],[10.51517,46.04637],[10.51537,46.04601],[10.51498,46.04573],[10.5146,46.04516],[10.51463,46.04497],[10.51442,46.04481],[10.5144,46.04464],[10.51399,46.04438],[10.51384,46.04386],[10.51362,46.04354],[10.51319,46.04321],[10.51313,46.04274],[10.51277,46.04206],[10.51248,46.04176],[10.51215,46.04161],[10.51202,46.04147],[10.51203,46.04132],[10.5117,46.04109],[10.51221,46.04007],[10.51276,46.03968],[10.51298,46.03938],[10.51262,46.03852]]},"properties":{"cls":"river","name":"Fiume Chiese"}},{"type":"Feature","geometry":{"type":"LineString","coordinates":[[10.5461,46.05802],[10.54653,46.05801],[10.54661,46.05808]]},"properties":{"cls":"stream"}},{"type":"Feature","geometry":{"type":"LineString","coordinates":[[10.52124,46.05349],[10.52115,46.05335]]},"properties":{"cls":"canal"}},{"type":"Feature","geometry":{"type":"LineString","coordinates":[[10.48733,46.04886],[10.48798,46.04873],[10.48907,46.04899]]},"properties":{"cls":"stream"}},{"type":"Feature","geometry":{"type":"LineString","coordinates":[[10.52114,46.03078],[10.52058,46.03038],[10.52036,46.03006]]},"properties":{"cls":"stream"}},{"type":"Feature","geometry":{"type":"LineString","coordinates":[[10.53681,46.02057],[10.5366,46.02062]]},"properties":{"cls":"stream"}},{"type":"Feature","geometry":{"type":"LineString","coordinates":[[10.52293,45.99693],[10.52305,45.99694]]},"properties":{"cls":"river","name":"Fiume Chiese"}},{"type":"Feature","geometry":{"type":"LineString","coordinates":[[10.52109,46.05322],[10.52085,46.05287],[10.52046,46.05263]]},"properties":{"cls":"stream"}},{"type":"Feature","geometry":{"type":"LineString","coordinates":[[10.48292,46.03124],[10.48234,46.0316],[10.48216,46.03189],[10.48201,46.03274],[10.48163,46.03339],[10.48183,46.03393],[10.48148,46.03448],[10.48161,46.03488]]},"properties":{"cls":"stream"}},{"type":"Feature","geometry":{"type":"LineString","coordinates":[[10.56445,46.08744],[10.56417,46.0871],[10.56381,46.08703]]},"properties":{"cls":"stream","name":"Fiume Chiese"}},{"type":"Feature","geometry":{"type":"LineString","coordinates":[[10.56137,46.08479],[10.56105,46.08467],[10.56021,46.08469]]},"properties":{"cls":"stream","name":"Fiume Chiese"}},{"type":"Feature","geometry":{"type":"LineString","coordinates":[[10.52543,45.9883],[10.52861,45.9884],[10.52976,45.98827],[10.53031,45.9879],[10.53057,45.98791],[10.53076,45.98803],[10.53085,45.98833],[10.53111,45.98847]]},"properties":{"cls":"stream"}},{"type":"Feature","geometry":{"type":"LineString","coordinates":[[10.49592,46.0836],[10.49724,46.08265],[10.49757,46.08199],[10.49814,46.08176],[10.49841,46.0815],[10.49847,46.08103],[10.49819,46.07997],[10.49857,46.07919],[10.49839,46.07874],[10.49762,46.07865],[10.49671,46.07827],[10.49496,46.07699],[10.49339,46.07708],[10.49204,46.07691],[10.48968,46.07643],[10.48801,46.07125],[10.48732,46.07064],[10.48686,46.07044],[10.48539,46.07006],[10.48529,46.0696],[10.48423,46.06791],[10.48302,46.06739],[10.48195,46.06637],[10.48173,46.06594],[10.48041,46.06519],[10.47939,46.06485],[10.47927,46.06467],[10.47918,46.06411],[10.47832,46.06368],[10.47696,46.06341],[10.47638,46.06306],[10.47584,46.06256],[10.47483,46.06259],[10.47489,46.06229],[10.47259,46.05991],[10.47126,46.06002],[10.46997,46.05981]]},"properties":{"cls":"canal"}},{"type":"Feature","geometry":{"type":"LineString","coordinates":[[10.50905,46.09704],[10.50862,46.09681],[10.50821,46.09689],[10.50789,46.09679],[10.50723,46.09638],[10.50726,46.096],[10.50716,46.09589],[10.50619,46.09544],[10.50552,46.09524],[10.50515,46.0944],[10.50442,46.09441],[10.50402,46.09423],[10.50334,46.09411],[10.50311,46.09384],[10.50313,46.09357],[10.50366,46.09306],[10.5037,46.09273],[10.50413,46.09246],[10.5042,46.09224],[10.50388,46.09202],[10.50335,46.09118],[10.50275,46.09096],[10.50241,46.09041],[10.50159,46.08975],[10.501,46.08816],[10.50069,46.08809],[10.50041,46.08785],[10.49956,46.08747],[10.49927,46.08684],[10.49912,46.08615],[10.49889,46.08579],[10.49845,46.08539],[10.4983,46.08507],[10.49801,46.08501],[10.4974,46.08519],[10.49714,46.08511],[10.49709,46.08491],[10.49723,46.08465],[10.49713,46.08443],[10.49613,46.08371]]},"properties":{"cls":"stream","name":"Poia d'Adamé"}},{"type":"Feature","geometry":{"type":"LineString","coordinates":[[10.4836,46.09509],[10.48394,46.0945],[10.48419,46.09324],[10.48352,46.09211],[10.48299,46.09174]]},"properties":{"cls":"stream"}},{"type":"Feature","geometry":{"type":"LineString","coordinates":[[10.51798,46.0543],[10.51774,46.05281],[10.51726,46.05209]]},"properties":{"cls":"canal"}},{"type":"Feature","geometry":{"type":"LineString","coordinates":[[10.52083,46.05326],[10.52047,46.05275],[10.51981,46.0523]]},"properties":{"cls":"stream"}},{"type":"Feature","geometry":{"type":"LineString","coordinates":[[10.49613,46.08371],[10.49592,46.0836],[10.49575,46.0833],[10.49537,46.08299],[10.49476,46.08292],[10.49372,46.0818],[10.49236,46.08199],[10.49116,46.08194],[10.48858,46.08257],[10.487,46.08281],[10.48594,46.08274],[10.48432,46.08198],[10.48374,46.08186],[10.48346,46.08174],[10.48238,46.08071],[10.47944,46.079],[10.4785,46.0782],[10.47821,46.07809],[10.4778,46.07766],[10.47739,46.07744],[10.47652,46.07659],[10.47545,46.07612],[10.47519,46.07582],[10.47394,46.07509],[10.47358,46.07447],[10.47299,46.07384],[10.47289,46.07353],[10.47211,46.07286],[10.47175,46.07279],[10.47055,46.07288],[10.46997,46.07311]]},"properties":{"cls":"stream","name":"Poia d'Adamé"}},{"type":"Feature","geometry":{"type":"LineString","coordinates":[[10.5947,46.08566],[10.59666,46.08593],[10.59687,46.08607],[10.59778,46.0863],[10.59823,46.08655],[10.59896,46.08671],[10.60009,46.0867]]},"properties":{"cls":"stream"}},{"type":"Feature","geometry":{"type":"LineString","coordinates":[[10.52105,46.05338],[10.52098,46.05325]]},"properties":{"cls":"canal","name":"Fiume Chiese"}},{"type":"Feature","geometry":{"type":"LineString","coordinates":[[10.52036,46.03006],[10.51945,46.02943],[10.5187,46.02909],[10.51725,46.0287],[10.51686,46.0284],[10.51552,46.0282],[10.51503,46.02785],[10.51328,46.02722]]},"properties":{"cls":"stream"}},{"type":"Feature","geometry":{"type":"LineString","coordinates":[[10.50589,45.98822],[10.50718,45.98815],[10.50924,45.98831],[10.51086,45.98886],[10.51209,45.98916],[10.51286,45.98992],[10.51335,45.99017]]},"properties":{"cls":"stream"}},{"type":"Feature","geometry":{"type":"LineString","coordinates":[[10.57517,45.9858],[10.57414,45.98492]]},"properties":{"cls":"stream"}},{"type":"Feature","geometry":{"type":"LineString","coordinates":[[10.51688,46.05295],[10.51704,46.05185],[10.51682,46.05148],[10.51639,46.0514],[10.51603,46.0512],[10.51569,46.05021]]},"properties":{"cls":"stream"}},{"type":"Feature","geometry":{"type":"LineString","coordinates":[[10.48425,46.0649],[10.48354,46.06509],[10.48082,46.06639],[10.4803,46.06688],[10.47945,46.06806],[10.47648,46.07005],[10.47615,46.071]]},"properties":{"cls":"stream"}},{"type":"Feature","geometry":{"type":"LineString","coordinates":[[10.51818,46.05447],[10.51798,46.0543]]},"properties":{"cls":"stream"}},{"type":"Feature","geometry":{"type":"LineString","coordinates":[[10.57589,46.03625],[10.57917,46.03464],[10.57998,46.03375],[10.58047,46.03336],[10.57972,46.03283],[10.57959,46.03198],[10.57984,46.03177],[10.57986,46.03113],[10.58085,46.03083],[10.58121,46.03045],[10.58168,46.03016],[10.58228,46.02996],[10.58339,46.02911],[10.58412,46.02909],[10.58456,46.02881],[10.58494,46.02826],[10.58666,46.02768],[10.58723,46.02681],[10.58756,46.02656],[10.58901,46.02647],[10.59025,46.02625],[10.59107,46.02634],[10.59306,46.02726],[10.59383,46.02716],[10.59478,46.02698],[10.59599,46.02655],[10.59631,46.026],[10.59722,46.02572],[10.59751,46.02554],[10.59814,46.0247],[10.5986,46.02457],[10.5992,46.02454]]},"properties":{"cls":"stream"}},{"type":"Feature","geometry":{"type":"LineString","coordinates":[[10.47272,46.02703],[10.47245,46.02731],[10.47239,46.02771],[10.47285,46.0281],[10.47321,46.02826],[10.47341,46.02865],[10.47409,46.02911],[10.4742,46.02937],[10.47558,46.0303],[10.47563,46.03093]]},"properties":{"cls":"stream"}},{"type":"Feature","geometry":{"type":"LineString","coordinates":[[10.46997,46.08191],[10.47067,46.08079],[10.47123,46.08033],[10.47177,46.08008],[10.47254,46.07918],[10.47367,46.07871],[10.47385,46.07838],[10.47413,46.07813]]},"properties":{"cls":"stream"}},{"type":"Feature","geometry":{"type":"LineString","coordinates":[[10.5134,46.01694],[10.51318,46.01686]]},"properties":{"cls":"stream"}},{"type":"Feature","geometry":{"type":"LineString","coordinates":[[10.47786,46.0292],[10.47717,46.02996],[10.47653,46.03046],[10.47635,46.03096],[10.47563,46.03093],[10.47536,46.03103],[10.47513,46.03165],[10.47513,46.03209]]},"properties":{"cls":"stream"}},{"type":"Feature","geometry":{"type":"LineString","coordinates":[[10.52137,46.02945],[10.52058,46.02917],[10.51961,46.02903],[10.51899,46.029],[10.5187,46.02909]]},"properties":{"cls":"stream"}},{"type":"Feature","geometry":{"type":"LineString","coordinates":[[10.46997,46.07959],[10.47049,46.07922],[10.4708,46.07865],[10.47145,46.07821],[10.47188,46.07741],[10.47298,46.07662]]},"properties":{"cls":"stream"}},{"type":"Feature","geometry":{"type":"LineString","coordinates":[[10.59428,46.05651],[10.59478,46.05622],[10.59574,46.05602]]},"properties":{"cls":"stream"}},{"type":"Feature","geometry":{"type":"LineString","coordinates":[[10.47925,46.03792],[10.47887,46.03833]]},"properties":{"cls":"stream"}},{"type":"Feature","geometry":{"type":"LineString","coordinates":[[10.48872,46.0681],[10.48789,46.06841],[10.48504,46.06916],[10.48334,46.07027],[10.48291,46.07081],[10.48273,46.0715],[10.48251,46.07191],[10.48243,46.0725]]},"properties":{"cls":"stream"}},{"type":"Feature","geometry":{"type":"LineString","coordinates":[[10.58412,46.02909],[10.58532,46.02904],[10.58549,46.02915],[10.58791,46.02931],[10.59241,46.02853],[10.59272,46.02841],[10.59328,46.02789],[10.59384,46.0276],[10.59418,46.02709]]},"properties":{"cls":"stream"}},{"type":"Feature","geometry":{"type":"LineString","coordinates":[[10.53783,46.08828],[10.53799,46.08799],[10.53872,46.0874],[10.53871,46.08717],[10.53889,46.08693],[10.53935,46.08672],[10.53931,46.08653],[10.53994,46.08635],[10.54043,46.08597],[10.54066,46.08543],[10.54087,46.08519],[10.54137,46.08491],[10.54182,46.08487],[10.54301,46.08423],[10.54362,46.08377],[10.54438,46.08339],[10.54643,46.08182],[10.54714,46.08147],[10.54797,46.08065],[10.54811,46.08017],[10.54804,46.07924],[10.54816,46.0791],[10.54906,46.07885],[10.54945,46.07887],[10.54972,46.07878],[10.5499,46.07854],[10.54979,46.07847],[10.54988,46.07833],[10.55068,46.07789]]},"properties":{"cls":"stream"}},{"type":"Feature","geometry":{"type":"LineString","coordinates":[[10.59198,46.07358],[10.59336,46.07404],[10.59666,46.07458],[10.60009,46.07581]]},"properties":{"cls":"stream"}},{"type":"Feature","geometry":{"type":"LineString","coordinates":[[10.51251,46.03426],[10.51254,46.03403],[10.51266,46.03397],[10.51343,46.0342]]},"properties":{"cls":"stream"}},{"type":"Feature","geometry":{"type":"LineString","coordinates":[[10.60009,46.03099],[10.5998,46.03071],[10.5992,46.0304],[10.59866,46.02962]]},"properties":{"cls":"stream"}},{"type":"Feature","geometry":{"type":"LineString","coordinates":[[10.53701,46.02137],[10.5368,46.02112],[10.53685,46.02074],[10.53631,46.02043]]},"properties":{"cls":"stream"}},{"type":"Feature","geometry":{"type":"LineString","coordinates":[[10.57407,46.09483],[10.5736,46.09601],[10.57285,46.09642]]},"properties":{"cls":"stream"}},{"type":"Feature","geometry":{"type":"LineString","coordinates":[[10.51942,46.05337],[10.51939,46.05328]]},"properties":{"cls":"canal"}},{"type":"Feature","geometry":{"type":"LineString","coordinates":[[10.46997,45.99123],[10.47152,45.99113],[10.47454,45.99044],[10.47759,45.98955]]},"properties":{"cls":"stream"}},{"type":"Feature","geometry":{"type":"LineString","coordinates":[[10.46997,46.08387],[10.47126,46.0829],[10.47376,46.08152],[10.47429,46.08103],[10.47523,46.08073],[10.4768,46.08002]]},"properties":{"cls":"stream"}},{"type":"Feature","geometry":{"type":"LineString","coordinates":[[10.59291,46.0554],[10.59409,46.05517],[10.59454,46.05499]]},"properties":{"cls":"stream"}},{"type":"Feature","geometry":{"type":"LineString","coordinates":[[10.58886,46.09468],[10.58784,46.09446],[10.58772,46.09433],[10.58558,46.09411],[10.5805,46.09288],[10.57879,46.09211],[10.57803,46.09165],[10.57683,46.09119],[10.57568,46.09089],[10.57496,46.09082]]},"properties":{"cls":"stream"}},{"type":"Feature","geometry":{"type":"LineString","coordinates":[[10.59996,46.03315],[10.59937,46.03202],[10.59917,46.03111],[10.59857,46.03023],[10.5987,46.02934],[10.59893,46.02897],[10.59892,46.02857],[10.59867,46.02775],[10.59818,46.02674],[10.5983,46.02579],[10.5992,46.02454]]},"properties":{"cls":"stream"}},{"type":"Feature","geometry":{"type":"LineString","coordinates":[[10.47695,46.09492],[10.47663,46.09458],[10.47672,46.09361],[10.47684,46.09319],[10.47723,46.09264],[10.47732,46.0918],[10.47765,46.09105],[10.47842,46.09006],[10.4808,46.08845],[10.48118,46.08769],[10.48197,46.08725],[10.48296,46.08596]]},"properties":{"cls":"stream"}},{"type":"Feature","geometry":{"type":"LineString","coordinates":[[10.50156,46.05978],[10.50265,46.05953],[10.50275,46.05931],[10.50304,46.05933],[10.50463,46.05885],[10.50602,46.05823],[10.50628,46.05819],[10.50682,46.05829],[10.50717,46.05852],[10.50698,46.05868],[10.50699,46.05877],[10.50718,46.05881],[10.5073,46.05873],[10.50766,46.05875],[10.50862,46.05839],[10.50892,46.05848],[10.5095,46.0584],[10.50997,46.05818],[10.51006,46.05803],[10.51175,46.05811]]},"properties":{"cls":"stream"}},{"type":"Feature","geometry":{"type":"LineString","coordinates":[[10.56592,46.09273],[10.56613,46.09197],[10.56528,46.0911],[10.56528,46.09066],[10.56551,46.08992],[10.56552,46.08936],[10.56547,46.08893],[10.56505,46.08812],[10.56514,46.08781],[10.56401,46.08728],[10.56379,46.087],[10.56337,46.08681],[10.56216,46.08666],[10.56202,46.08633],[10.56207,46.08601],[10.56189,46.08559],[10.56187,46.08495],[10.56176,46.08484],[10.56078,46.08482],[10.55996,46.0846],[10.55952,46.08422],[10.55907,46.0836],[10.55818,46.08335],[10.55771,46.08311],[10.55754,46.08286],[10.55757,46.08276],[10.55794,46.08237],[10.55791,46.08222],[10.55762,46.08195],[10.5551,46.08166],[10.55427,46.08144],[10.55322,46.08148],[10.55297,46.0811],[10.55342,46.08029],[10.55339,46.07975],[10.55248,46.07985],[10.55222,46.07982],[10.55199,46.07967],[10.55083,46.07834],[10.55058,46.07763],[10.55043,46.07746],[10.54977,46.07739],[10.5494,46.07724],[10.54983,46.07673],[10.54982,46.07654],[10.54967,46.07643],[10.54844,46.07626],[10.54674,46.07618],[10.54675,46.07574],[10.54657,46.07526],[10.54565,46.07425],[10.54548,46.07373],[10.54528,46.07355],[10.54488,46.07359],[10.54472,46.07351],[10.54469,46.07303],[10.54458,46.07285],[10.54419,46.07264],[10.54287,46.07293],[10.54218,46.07243],[10.54177,46.07185],[10.5413,46.07156],[10.54114,46.07137],[10.54114,46.07093],[10.54049,46.0699],[10.5406,46.06966],[10.54051,46.06918],[10.54089,46.06869],[10.54072,46.06849],[10.53887,46.06804],[10.53711,46.06732],[10.52438,46.05967],[10.51912,46.05669],[10.51881,46.0553],[10.51925,46.0541],[10.52077,46.0537],[10.52105,46.05338]]},"properties":{"cls":"river","name":"Fiume Chiese"}},{"type":"Feature","geometry":{"type":"LineString","coordinates":[[10.56508,46.09443],[10.56493,46.09392],[10.56503,46.09348],[10.56525,46.09309],[10.56564,46.09294]]},"properties":{"cls":"stream"}},{"type":"Feature","geometry":{"type":"LineString","coordinates":[[10.49948,46.0741],[10.49852,46.0755],[10.49777,46.07618],[10.49717,46.0772],[10.49569,46.07834],[10.49529,46.07949],[10.49429,46.08008],[10.4932,46.08087]]},"properties":{"cls":"stream"}}]}